"location_id","address","city","facebook_places_id","lat","lng","name","short_name"
677307192388401,"","",677307192388401,58.865350224898997,42.613687489542002,"Europe/Moscow","Europe/Moscow"
7538318,"","",109653395718995,55.676111111110998,12.568888888888999,"Copenhagen","Copenhagen"
213897585,"","",115461575134685,24.466699999999999,54.366700000000002,"Abu Dhabi, United Arab Emirates","Abu Dhabi"
212903416,"","",106012156106461,41.007931999999997,28.978144000000000,"Istanbul, Turkey","Istanbul"
213928996,"","",106439142725244,38.116700000000002,13.366700000000000,"Palermo, Italy","Palermo"
212898659,"","",111227078906045,50.450000000000003,30.523299999999999,"Kyiv, Ukraine","Kyiv"
238838212,"","",113760405301270,35.000000000000000,33.000000000000000,"Cyprus","Cyprus"
213100244,"","",106287062743373,41.388800000000003,2.168100000000000,"Barcelona, Spain","Barcelona"
4254667,"","",105573712808538,36.133299999999998,-5.350000000000000,"Gibraltar","Gibraltar"
253110846,"","",106085842755444,52.000000000000000,19.000000000000000,"Poland","Poland"
270531492,"","",113396132004585,43.000000000000000,12.000000000000000,"Italy","Italy"
213050058,"","",108581069173026,45.464300000000002,9.189700000000000,"Milan, Italy","Milan"
213359469,"","",116045151742857,48.149999999999999,11.583300000000000,"Munich, Germany","Munich"
8351513,"","",102184499823699,45.503799999999998,-73.574399999999997,"Montreal, Quebec","Montreal"
212947533,"","",107991659233606,33.756599999999999,-84.388900000000007,"Atlanta, Georgia","Atlanta"
213296852,"","",107933505906257,45.438600000000001,12.326700000000001,"Venice, Italy","Venice"
204517928,"","",108659242498155,41.883222000000004,-87.632496000000003,"Chicago, Illinois","Chicago"
213131048,"","",111175118906315,52.518391000000001,13.401251000000000,"Berlin, Germany","Berlin"
524752115,"","",153123228092624,51.419390000000000,7.404526000000000,"Nordrhein-Westfalen, Germany","Nordrhein-Westfalen"
213819997,"","",114497808567786,49.281900000000000,-123.120400000000004,"Vancouver, British Columbia","Vancouver"
238745769,"","",105580162808279,53.446983480100002,-7.080567290590000,"Ireland (country)","Ireland (country)"
212991559,"","",110941395597405,43.716600000000000,-79.340699999999998,"Toronto, Ontario","Toronto"
116231,"","",111777152182368,52.377699999999997,4.900100000000000,"Amsterdam, Netherlands","Amsterdam"
579216842,"","",153482511389812,51.112404107099998,13.191441055400000,"Sachsen, Germany","Sachsen"
341003,"","",107709815923527,53.799700000000001,-1.549200000000000,"Leeds","Leeds"
420438107,"","",193974107321513,42.238700999999999,13.882569999999999,"Abruzzo","Abruzzo"
127963847,"","",106504859386230,40.399999999999999,-3.683330000000000,"Madrid, Spain","Madrid"
244377310,"","",106123262753066,52.316666666666997,5.550000000000000,"Netherlands","Netherlands"
213570382,"","",102146663160831,-27.467800000000000,153.027999999999992,"Brisbane, Queensland, Australia","Brisbane"
213226541,"","",109506742412900,51.923499999999997,4.475200000000000,"Rotterdam, Netherlands","Rotterdam"
213079945,"","",108331215864513,36.509000000000000,-4.885500000000000,"Marbella, Spain","Marbella"
214174268,"","",109916022364166,52.949199999999998,-1.145300000000000,"Nottingham, United Kingdom","Nottingham"
220021938,"","",108446732520456,-12.061100000000000,-77.035300000000006,"Lima, Peru","Lima"
213429964,"","",115753025103602,55.954599999999999,-3.208700000000000,"Edinburgh, United Kingdom","Edinburgh"
757943297732829,"Milky Way Galaxy","",757943297732829,14.647660000000000,121.051509999999993,"Planet Earth","Planet Earth"
231294965,"","",107547675935239,51.693140000000000,-0.178340000000000,"Potters Bar","Potters Bar"
261698127,"","",105547606144717,49.000000000000000,20.000000000000000,"Slovakia","Slovakia"
213211804,"","",110848678937314,59.910600000000002,10.746499999999999,"Oslo, Norway","Oslo"
213658970,"","",115247758487174,40.852800000000002,14.245400000000000,"Naples, Italy","Naples"
203298270203560,"Cutty Sark, King William Walk, Greenwich ","London, United Kingdom",203298270203560,51.483086668550001,-0.009768605232239,"Cutty Sark","Cutty Sark"
215141266,"","",102161913158207,28.631747000000001,77.219672000000003,"Delhi, India","Delhi"
214843582,"","",104081259629164,31.765799999999999,-106.489000000000004,"El Paso, Texas","El Paso"
213076173,"","",115504291797975,37.986100000000000,23.732099999999999,"Athens, Greece","Athens"
212962809,"","",115963528414384,29.760200000000001,-95.369399999999999,"Houston, Texas","Houston"
35413,"Tower Bridge Road","London, United Kingdom",185921861457603,51.505149185828998,-0.075584744260704,"Tower Bridge","Tower Bridge"
334657,"Thames Wharf, Rainville Rd","",146903635347342,51.484052754254002,-0.224426000000000,"The River Cafe","The River Cafe"
426424676,"","",124343784408452,-25.739172000000000,28.190054000000000,"Waterfront, Cape Town, Western Cape","Waterfront"
217125815464054,"Millbank, London SW1P 4RG","SW1, London",217125815464054,51.490898934028003,-0.127473251962680,"Tate Britain","Tate Britain"
263261931,"Racino Pl. 1","",218904464802859,47.980763635846003,16.385164989822002,"Magna Racino Ebreichsdorf","Magna Racino Ebreichsdorf"
215927995,"","",102187606489097,53.122199999999999,17.998600000000000,"Bydgoszcz, Poland","Bydgoszcz"
223199340,"","",107891469239125,51.000000000000000,5.000000000000000,"Belgium","Belgium"
97944,"","London, United Kingdom",228212743876781,51.508390347704001,-0.077258839868228,"Tower of London","Tower of London"
475928779,"87 Notting Hill Gate","",115943618453061,51.509000000000000,-0.197000000000000,"Notting Hill Gate","Notting Hill Gate"
260688774,"","",110869988937000,51.266700000000000,30.233300000000000,"Chernobyl, Ukraine","Chernobyl"
1070774,"Parliament Buildings, Ballymiscaw Stormont","Belfast, United Kingdom",110811042313991,54.605010494173001,-5.831980705261200,"Parliament Buildings, Stormont, Belfast","Parliament Buildings"
1241986,"8 Southwark Street","London, United Kingdom",146210155448494,51.505653825137998,-0.090508916666667,"Borough Market","Borough Market"
163727767907107,"","",163727767907107,-36.031331776332003,117.421875000000000,"Brexit","Brexit"
218211542,"","",111536878864748,61.000000000000000,14.550000000000001,"Mora, Sweden","Mora"
213633143,"","",108429795855423,50.850000000000001,4.350000000000000,"Brussels, Belgium","Brussels"
220575997,"","",105595846141884,55.572777777778000,-5.245833333333300,"Isle of Arran","Isle of Arran"
1030854175,"1 Rockingham Way","",1536147829934181,53.574305446594998,-1.211406515642300,"DFS Head Office","DFS Head Office"
717273612,"Tower Bridge Road","",168093449982186,51.351584522101000,0.094247544184415,"Tower Bridge, London","Tower Bridge"
219754485,"","",109450145753607,28.121540000000000,-16.724900000000002,"Adeje, Canarias, Spain","Adeje"
1561651337181441,"","England",1561651337181441,51.521749999999997,-0.125890000000030,"Russell Square","Russell Square"
219323,"","",103145123058362,51.485300000000002,-3.186700000000000,"Cardiff","Cardiff"
17728157,"Rue de la Loi","Brussels, Belgium",107898832590939,50.843562553704999,4.382600784301800,"European Commission","European Commission"
8562373,"Riverside Building, County Hall, Westminster Bridge Road, ","London, United Kingdom",51878489215,51.503364780310001,-0.119347349063370,"The Official London Eye","The Official London Eye"
1700174413579557,"40 blvd Haussmann","France",1700174413579557,48.873422413523997,2.331795154049100,"Galeries Lafayette","Galeries Lafayette"
488431810,"","",106422072722497,51.473599999999998,-0.091200000000000,"Camberwell","Camberwell"
249172236,"","",115597431784031,48.894107570617002,11.583000803260999,"Bayern, Germany","Bayern"
577880371,"","",180793718643106,50.850000000000001,4.350000000000000,"Brussels","Brussels"
1015670117,"Unit B1 Brearley Place, Baird Road","Gloucester, Gloucestershire",288451784576647,51.815062086363000,-2.272217273712200,"Race Developments","Race Developments"
292218,"Kensington Gardens","London, United Kingdom",152535684769859,51.504945468654000,-0.187506888497910,"Kensington Palace","Kensington Palace"
6186697,"Houses of Parliament","",104095576294503,51.499444444444002,-0.124166666666670,"Palace of Westminster","Palace of Westminster"
230429578,"","",112003908826570,51.125770000000003,1.317750000000000,"Dover, Kent","Dover"
211364562676261,"258 Kingsland Road","",211364562676261,51.537313521724002,-0.076603889465332,"Sin Gusano","Sin Gusano"
224652648,"","",110380555648442,51.495943930487996,-0.133553172715030,"Westminster","Westminster"
236478734,"","",110609938959493,48.612099999999998,2.478500000000000,"Corbeil-Essonnes, France","Corbeil-Essonnes"
220514641,"","",106108456094327,55.854109999999999,-4.434210000000000,"Paisley, Renfrewshire","Paisley"
213692875,"King's Gate","Newcastle upon Tyne",139577716095155,54.979121670334003,-1.615271146919100,"Newcastle University","Newcastle University"
229878714,"Upper Newtownards Rd","",124392447604865,54.599400000000003,-5.836670000000000,"Stormont Estate","Stormont Estate"
43222354,"London W1","",104113892957561,51.508755555556000,-0.147430555555560,"Mayfair","Mayfair"
233768934,"Westfield House, The links","",107467119283316,52.230861111110997,0.382250000000000,"Newmarket Racecourse","Newmarket Racecourse"
456562613,"","",132872370082552,52.478200000000001,-1.899840000000000,"New Street, Birmingham","New Street"
115741,"53 Park Lane","London, United Kingdom",33563257287,51.507128126641000,-0.152433032845440,"The Dorchester","The Dorchester"
356319094827324,"20 Fenchurch Street","",356319094827324,51.511177641228002,-0.083657404082053,"Sky Garden","Sky Garden"
221334029,"","",106263062746008,45.778399999999998,3.085800000000000,"Clermont-Ferrand, France","Clermont-Ferrand"
156077091612150,"","London, United Kingdom",156077091612150,51.511331615414001,-0.128437578678130,"Leicester Square","Leicester Square"
950664901672100,"One Western Gateway Royal Victoria Dock","London, Greater London",950664901672100,51.508152679873000,0.031997287187537,"ExCeL London Exhibition and Convention Centre","ExCeL London Exhibition and Convention Centre"
916970932,"70 Upper Street","London, United Kingdom",152674774808578,51.536090000000002,-0.103960000000000,"Immigration Connection","Immigration Connection"
213784902,"","",110445852316970,43.604399999999998,1.444300000000000,"Toulouse, France","Toulouse"
213991045,"","",114629675219759,53.479300000000002,-2.246300000000000,"Manchester, United Kingdom","Manchester"
213591862,"Oxford St","London, United Kingdom",220185188020934,51.515011645434001,-0.143318582151900,"Oxford Street","Oxford Street"
788830007,"248 Queen's Road East, Wan Chai","Hong Kong",309077815963995,22.274470000000001,114.173550000000006,"La Station","La Station"
504822481,"","",109943272365076,51.500999999999998,-0.142000000000000,"Buckingham Palace","Buckingham Palace"
224589295,"ul. Króla Jana III Sobieskiego","Swidnik",219479434745411,51.235896448529999,22.715513726472000,"Lublin Airport LUZ","Lublin Airport LUZ"
4216931,"","",104042962964380,52.899000000000001,-1.271000000000000,"Long Eaton","Long Eaton"
4196016,"8200 Westminster Blvd.","Westminster, California",126869922564,33.756610000000002,-117.985979999999998,"City of Westminster","City of Westminster"
597944289,"","Berlin, Germany",165201756974384,52.502783988475002,13.270320698691000,"FRUIT LOGISTICA","FRUIT LOGISTICA"
213110517,"","",115100621840245,43.611899999999999,3.877200000000000,"Montpellier, France","Montpellier"
484300057,"threadneedle street london Ec2","",487267854651561,51.510924664525000,-0.198743638412700,"Bank of England","Bank of England"
213528629,"","",102218393153696,47.471342999999997,-0.552324000000000,"Angers, France","Angers"
326011454883314,"Plein 2","",326011454883314,52.079338000000000,4.314570000000000,"Tweede Kamer der Staten-Generaal","Tweede Kamer der Staten-Generaal"
213267431,"","",108700782494847,51.450000000000003,-2.583330000000000,"Bristol, United Kingdom","Bristol"
215138884,"","",111569242193963,30.663399999999999,-81.451700000000002,"Fernandina Beach, Florida","Fernandina Beach"
213213692,"","",106220079409935,36.164999999999999,-86.783888888888995,"Nashville, Tennessee","Nashville"
297581007,"","",105604449474183,47.000000000000000,2.000000000000000,"France","France"
281826579025374,"","W12, London",281826579025374,51.509444899999998,-0.222895700000000,"Westfields Shepards Bush","Westfields Shepards Bush"
452315791,"","",736179199733189,51.952500000000001,4.046400000000000,"Maasvlakte","Maasvlakte"
215837107,"Airport Rd","Belfast",120008798034080,54.614751181415997,-5.870904163678700,"Belfast City Airport","Belfast City Airport"
215319850,"","",114818845200946,51.539279999999998,0.081300000000000,"Barking, United Kingdom","Barking"
230550180,"","",112372102112762,53.683399999999999,-1.496700000000000,"Wakefield","Wakefield"
234502407,"","",107499252613318,51.775913000000003,-8.311242999999999,"Fountainstown","Fountainstown"
213088813,"","Brussels, Belgium",114885670293,50.848387444704997,4.351429375566600,"Brussels","Brussels"
213690004,"","",112710045409378,50.842900000000000,-0.131300000000000,"Brighton","Brighton"
369515693061798,"Allwoods, London Road","Hassocks",369515693061798,50.936607025648002,-0.146470069885250,"Allwoods","Allwoods"
252216828,"","",106260212739167,57.412759999999999,-6.196070000000000,"Portree","Portree"
610867425,"23 Gilesgate","Durham, Durham",279763268782175,54.778785700000000,-1.566534800000000,"The Woodman Inn - Durham","The Woodman Inn - Durham"
227852164,"","",110401808989047,51.611860000000000,-0.646990000000000,"Beaconsfield, Buckinghamshire","Beaconsfield"
266584407,"","",112641072080939,40.466666666667002,17.733333333333000,"Torre Santa Susanna","Torre Santa Susanna"
839751,"La Hondura 8","Santiago del Teide, Spain",119313098092940,28.239319573250999,-16.844647398029998,"Barceló Santiago","Barceló Santiago"
1026362163,"Market St","",110335065685452,53.482399999999998,-2.240560000000000,"Market Street, Manchester","Market Street"
631973678,"Fıstıklı Yokuşu No.8 Kanlica, Beykoz / İstanbul","",349953581873805,41.098733873999997,29.066572313999998,"TAVAK Türkiye Avrupa Eğitim Ve Bilimsel Araştırmalar Vakfı","TAVAK Türkiye Avrupa Eğitim Ve Bilimsel Araştırmalar Vakfı"
581286836,"","",153667204685496,6.849080203376800,3.654579377605200,"Ogun, Nigeria","Ogun"
252274142,"","",115142871831620,55.000000000000000,-7.333330000000000,"Derry, Northern Ireland","Derry"
1773782829597894,"","England",1773782829597894,51.480849599999999,-0.002928999999995,"Greenwich","Greenwich"
1049645,"Lancaster Terrace","London, United Kingdom",106291891391,51.512121187086997,-0.175330638885500,"Royal Lancaster London","Royal Lancaster London"
213205633,"","",106502519386806,47.471899999999998,19.050300000000000,"Budapest, Hungary","Budapest"
1030205689,"Schloßplatz 1-3, 65183 Wiesbaden","",158620107489991,50.082910050740999,8.241399774932800,"Hessischer Landtag","Hessischer Landtag"
1031945617,"Vilamoura","Loulé",722102994602432,37.081000000000003,-8.114340000000000,"Vilamoura, Portugal","Vilamoura"
648352877,"","",215916278565212,53.392400000000002,-2.593500000000000,"Warrington, England","Warrington"
213117000,"","",114830741863254,42.816600000000001,-1.646300000000000,"Pamplona, Spain","Pamplona"
274765716483750,"27 Beechcroft Road","Bushey",274765716483750,51.650496099999998,-0.380692200000000,"Vintusconsulting","Vintusconsulting"
683630,"Musée du Louvre","Paris, France",23680604925,48.861381327663999,2.335394673676200,"Musée du Louvre","Musée du Louvre"
134510270433054,"","Bournemouth, Dorset",134510270433054,50.719591723919002,-1.795559892575300,"Southbourne Beach","Southbourne Beach"
1761481470553574,"105 Barnes Hill","",1761481470553574,52.441751799999999,-1.979420400000000,"Gentleman & Rogues Club Birmingham","Gentleman & Rogues Club Birmingham"
225535560,"","",104113272959985,37.016700000000000,-7.933330000000000,"Faro, Portugal","Faro"
32609312,"Poth 1","Iserlohn, Germany",192778464079891,51.373981499999999,7.695809800000000,"Radio MK","Radio MK"
733643020,"","",841848249220239,55.957300992222002,-3.168106063333300,"Abbeyhill, Edinburgh","Abbeyhill"
275139602496284,"Kingston University, Knights Park","Kingston upon Thames, United Kingdom",275139602496284,51.405109043769002,-0.298025608062740,"Stanley Picker Gallery","Stanley Picker Gallery"
2213754905563076,"130 Chiswick High Road","",2213754905563076,51.493009999999998,-0.253120000000000,"Assaggio, Taste Of Italy","Assaggio"
74913354,"","London, United Kingdom",45011739518,51.507073034161998,-0.163249969482420,"Hyde Park","Hyde Park"
1006771250,"Marston Lane","Market Harborough",425545010946529,52.460767222500998,-0.960359252493380,"Maison Des Macarons","Maison Des Macarons"
748381835492866,"Portcullis House, Attlee Suite 1 Parliament St, Westminster,","",748381835492866,51.501267900000002,-0.124869799999940,"Houses of Parliament","Houses of Parliament"
213097372,"","",115838035093755,44.838600000000000,-0.578300000000000,"Bordeaux, France","Bordeaux"
916831360,"6 Pancras Square","London, United Kingdom",698986010206246,51.533521466582002,-0.125524304683240,"Drake & Morgan at King's Cross","Drake & Morgan at King's Cross"
214234876,"","",108695472488778,50.827777777778003,-0.152777777777780,"Brighton and Hove","Brighton and Hove"
213069300,"","",116190411724975,-37.815600000000003,144.966100000000012,"Melbourne, Victoria, Australia","Melbourne"
213938893,"","",113261168687729,51.504166666666997,-0.143611111111110,"Green Park","Green Park"
316371923,"","",103795189659158,51.457799999999999,-0.149400000000000,"Clapham Common","Clapham Common"
222558437,"","",106492536052720,52.706600000000002,-2.751220000000000,"Shrewsbury, Shropshire","Shrewsbury"
529056943947948,"2 Marsham Street","London, United Kingdom",529056943947948,51.495832875452002,-0.129883289337160,"Home Office","Home Office"
762256506,"336 - 337 Strand","",374016052789897,51.511909500000002,-0.118353800000000,"STK","STK"
267434670,"","",111629592199342,36.367522811248001,-5.228687821906600,"San Luis De Sabinillas, Andalucia, Spain","San Luis De Sabinillas"
494822640,"Isaac Newton Centre","Grantham, Lincolnshire",154830947868560,52.909769071353999,-0.643107891082760,"Isaac Newton Shopping Centre","Isaac Newton Shopping Centre"
228616755,"","",110968245597636,52.191070000000003,-2.222230000000000,"Worcester, Worcestershire","Worcester"
272956370,"","",112094225518455,51.518599999999999,-0.081300000000000,"Liverpool Street","Liverpool Street"
611062,"49 Brook St.","London, United Kingdom",109001732457073,51.512652425047001,-0.147692418438670,"Claridge’s","Claridge’s"
246236828,"","",113460651997947,51.521944444444003,-0.071666666666667,"Brick Lane","Brick Lane"
227780189,"","",115310288482810,51.069540000000004,-1.800270000000000,"Salisbury, Wiltshire","Salisbury"
216103134,"10 Downing Street","",103167979736944,51.503222222222000,-0.127500000000000,"Downing Street","Downing Street"
222093946,"","",115786548436267,52.251030000000000,6.159900000000000,"Deventer, Overijssel","Deventer"
295969234169141,"Bloukrans Bridge., Plettenberg Bay","Western Cape",295969234169141,-34.055309999999999,23.372219999999999,"Face Adrenalin Sports PLETTENBERG BAY, Western Cape","Face Adrenalin Sports PLETTENBERG BAY"
257726435,"44  Garden Walk  Metro Centre","Gateshead",183200375064300,54.956931682421001,-1.671189013384100,"Newcastle (Metro Ctr)","Newcastle (Metro Ctr)"
134426,"135 Grosvenor Street","Manchester, United Kingdom",160498780631211,53.470199172999998,-2.236506920000000,"The Deaf Institute","The Deaf Institute"
433200380354209,"The Street, Crookham Village","Fleet, Hampshire",433200380354209,51.265930774198999,-0.861549442843730,"The Spice Merchant","The Spice Merchant"
1031213251,"75 Hill Road","",1465538647020812,51.443208005180999,-2.857619714719500,"Books On The Hill","Books On The Hill"
219543173,"Wood Lane","",107780879245163,51.509900000000002,-0.226300000000000,"Television Centre, London","Television Centre"
1048664575184866,"","London, United Kingdom",1048664575184866,51.506645651619003,-0.088083744049072,"London Bridge","London Bridge"
14809049,"","",112730938745249,43.739672836688001,7.426478262816900,"Monte-Carlo, Monaco","Monte-Carlo"
25400407,"110 Bishopsgate 40th Floor","London, United Kingdom",148012131933848,51.516307950574998,-0.080895793877138,"Duck & Waffle","Duck & Waffle"
213270076,"","",114897945188014,19.432600000000001,-99.133200000000002,"Mexico City, Mexico","Mexico City"
658657046,"","",112436812105151,51.597000000000001,-0.071000000000000,"Tottenham","Tottenham"
1020767729,"Mostowa 4","Krakov (Kraków, Poland)",1565692650342757,50.048213445149997,19.945477626805001,"Pub Hospudka u NAS","Pub Hospudka u NAS"
213011753,"","",110884905606108,-33.867510000000003,151.207969999999989,"Sydney, Australia","Sydney"
323658307,"Via Giuseppe Di Vittorio 6 Assago","Milano",542975072468576,45.401478656233003,9.143250088384800,"Mediolanum Forum","Mediolanum Forum"
1523588827694642,"","",1523588827694642,47.496156209139997,19.050883631792999,"Danube River, Budapest","Danube River"
384374934,"","",113130772033743,51.483800000000002,-0.604830000000000,"Windsor Castle","Windsor Castle"
242548287,"","",103692443002246,53.411999999999999,-2.918000000000000,"Old Swan","Old Swan"
519858508,"","Sarasota, FL",402763063150685,51.510046776328998,-0.134203921188420,"Piccadilly Circus","Piccadilly Circus"
434712389,"Place de la République","",129886617064004,48.867277777778000,2.364055555555600,"Place de la République (Paris)","Place de la République (Paris)"
514165752328163,"","Baku, Azerbaijan",514165752328163,40.371212000000000,49.838580000000000,"Hollywood Planet","Hollywood Planet"
758392441,"","",108226049197930,10.505599999999999,-66.913600000000002,"Caracas","Caracas"
212901056,"","",108081209214649,36.167499999999997,-115.149000000000001,"Las Vegas, Nevada","Las Vegas"
148116342,"13. janvāra iela 8","Riga, Latvia",120689227970188,56.946125796415998,24.116022801078000,"Forum Cinemas LV","Forum Cinemas LV"
550250,"Rue de la Loi/Wetstraat 175","Brussels, Belgium",147547541961576,50.842309999999998,4.382300000000000,"Council of the European Union","Council of the European Union"
251794455,"","",108100019211318,51.000000000000000,10.000000000000000,"Germany","Germany"
2575556,"20 Dean's Yard","London, United Kingdom",126708737378026,51.499740468363001,-0.128285069774060,"Westminster Abbey","Westminster Abbey"
5158575,"","",108153009209321,14.016666666667000,107.900000000000006,"Vietnam","Vietnam"
120637,"Gipsy Lane","Oxford, United Kingdom",97940337907,51.754412753586003,-1.223666667938200,"Oxford Brookes University","Oxford Brookes University"
230353860,"","",114941788521588,51.686399999999999,0.001460000000000,"Waltham Abbey, United Kingdom","Waltham Abbey"
214670845,"","",102524989800626,53.478600000000000,-2.240100000000000,"Chinatown, Manchester","Chinatown"
1617077971952286,"1000 bruxelles","City of Brussels",1617077971952286,50.846757649235002,4.352661198210800,"Grand Palace","Grand Palace"
218596037,"","",109489972411518,17.983300000000000,-76.799999999999997,"Kingston, Jamaica","Kingston"
213287027,"","",108445149186137,45.583300000000001,9.266670000000000,"Monza, Italy","Monza"
425690362,"","",109544502404673,8.000000000000000,-65.000000000000000,"Venezuela","Venezuela"
560153,"Albert Bridge","",105741259460546,51.482222222221999,-0.166666666666670,"Albert Bridge, London","Albert Bridge"
231658410,"","",108120859215240,53.423125920490001,-1.539791373272100,"Worrall","Worrall"
230217174,"546 Falls Rd","",138678316156540,54.588000000000001,-5.976000000000000,"Milltown Cemetery","Milltown Cemetery"
302283095,"","",110239242360564,38.286854126652003,-0.552121337152330,"Alicante–Elche Airport","Alicante–Elche Airport"
214737000,"","",108401115846601,-28.001600000000000,153.426700000000011,"Surfers Paradise, Queensland","Surfers Paradise"
823776005,"","",802222556514015,3.260125730000000,101.523608370000005,"Borough of Lewisham, London","Borough of Lewisham"
213830427,"","",111665038853258,37.492400000000004,15.075200000000001,"Catania, Italy","Catania"
248915988,"","",103787872993257,46.000000000000000,15.000000000000000,"Slovenia","Slovenia"
226142803,"","",110353645651428,-34.556868178587997,-58.413396601503997,"Ciudad Autónoma de Buenos Aires","Ciudad Autónoma de Buenos Aires"
230143433,"Exhibition Road","London, United Kingdom",112138018852330,51.499156257083001,-0.174632465793720,"Imperial College Business School","Imperial College Business School"
274029466,"","",105565836144069,1.293060000000000,103.855999999999995,"Singapore","Singapore"
4574614,"Veiten 3","Bergen, Norway",157963850916887,60.392479334552000,5.321045495228400,"Ricks","Ricks"
215351224,"","",114807985198048,36.716700000000003,-4.423700000000000,"Málaga, Spain","Málaga"
1655334318117646,"","",1655334318117646,-27.463224159999999,153.003153120000007,"Paddington","Paddington"
719614,"","",271963079548530,39.464799999999997,-0.377000000000000,"Valencia","Valencia"
212950988,"","",112111905481230,40.649999999999999,-73.950000000000003,"Brooklyn, New York","Brooklyn"
229454526,"","",215225401831351,51.500000000000000,-0.116666666666670,"England","England"
413563067,"","",108206999203128,34.660299999999999,135.512200000000007,"Osaka","Osaka"
238875664,"","",106292996069444,46.798561999999997,8.231973000000000,"Switzerland","Switzerland"
214788051,"","",107572595931951,43.074722222222000,-89.384444444444000,"Madison, Wisconsin","Madison"
297637072,"","",112825018731802,43.000000000000000,-75.000000000000000,"New York","New York"
323751074,"Via Aiemita 27","Forio, Campania, Italy",156122804409525,40.746441408999999,13.866439838500000,"Albergo La Scogliera","Albergo La Scogliera"
494369074,"","",235403913142099,47.413366050000000,-0.342142340000000,"Pays de la Loire, France","Pays de la Loire"
548007925574450,"1102","Amsterdam, Netherlands",548007925574450,52.326206996766999,4.953639655473800,"Amsterdam Holanda","Amsterdam Holanda"
1090407291126489,"","",1090407291126489,51.474277000000001,-0.489700000000000,"BA Airbus A319","BA Airbus A319"
150716541659617,"","",150716541659617,33.472690192667002,-117.723999023440001,"State of the Union","State of the Union"
72783909,"","",110221372332205,50.115400000000001,8.670900000000000,"Frankfurt, Germany","Frankfurt"
259686981154767,"W 29th St","Karachi, Pakistan",259686981154767,30.295629999999999,-97.743560000000002,"Somewhere On Earth","Somewhere On Earth"
456823584822825,"","London, United Kingdom",456823584822825,51.497629616967998,-0.124969482421880,"Better Brexit","Better Brexit"
25619,"","London, United Kingdom",200541918588,51.505958467635999,-0.117412226457480,"South Bank London","South Bank London"
467267673,"Düsternbrooker Weg 77A","",205979406275181,54.335000000000001,10.153000000000000,"Schleswig-Holsteinischer Landtag","Schleswig-Holsteinischer Landtag"
866035832,"","",132159793486454,55.894199999999998,-4.292780000000000,"Glasgow North","Glasgow North"
19069894,"Kennedystraße","Köln, Germany",159386810773452,50.878195074855000,7.122402191162100,"Köln Bonn Airport","Köln Bonn Airport"
626566324133922,"31A Villiers Street","London",626566324133922,51.508061954802002,-0.123718299102210,"Ippudo","Ippudo"
214578719,"","",114596688557481,47.266212000000003,11.395947000000000,"Innsbruck, Austria","Innsbruck"
227943438,"","",110906392264911,56.466700000000003,-2.866670000000000,"Broughty Ferry, Dundee City, United Kingdom","Broughty Ferry"
257251685,"","",106102532755162,51.500999999999998,-0.142000000000000,"Buckingham Palace","Buckingham Palace"
213193724,"","",105578279475150,33.769199999999998,-118.193799999999996,"Long Beach, California","Long Beach"
1356054127818154,"","London",1356054127818154,51.511594799999998,-0.180974700000000,"Lancaster Gate","Lancaster Gate"
5693397,"32&34, Lorong Lang, Taman Berkeley","Klang, Malaysia",203337523029818,3.056619525439200,101.463872980049999,"潮州炒粥，巴生","潮州炒粥，巴生"
234760476652758,"Mühlweg 22","Rangendingen, Germany",234760476652758,48.383499999999998,8.884420000000000,"FotoScho","FotoScho"
1199363726884999,"70 Regent Street","",1199363726884999,51.510069999999999,-0.136190000000000,"Cakes & Bubbles","Cakes & Bubbles"
1030271406,"Pancras Rd","London",225605834454755,51.531432532657000,-0.125891443871750,"Eurostar","Eurostar"
300545133,"","",106254086077516,51.416437457828998,0.507109245552860,"Wainscott, Medway","Wainscott"
218435836,"","",108716935824604,38.906140999999998,1.425775000000000,"Ibiza, Spain","Ibiza"
245533727,"","",103436849696192,50.739469999999997,-4.001830000000000,"Okehampton","Okehampton"
212983635,"","",110714572282163,32.715499999999999,-117.158500000000004,"San Diego, California","San Diego"
213047365,"Euston Road","London, United Kingdom",258841380865153,51.531678859137998,-0.126063258004720,"St Pancras International","St Pancras International"
1265760730152445,"","London",1265760730152445,51.521236500000000,-0.143931100000000,"Big Ben Tower, London","Big Ben Tower"
2259732130980481,"Парк Победы","",2259732130980481,55.735447000000001,37.515877000000003,"Фестиваль  Ледовая Москва","Фестиваль  Ледовая Москва"
1026662883,"","",158590827504418,51.503222222222000,-0.127500000000000,"Downing Street","Downing Street"
113219216138178,"","",113219216138178,55.684891458792002,12.582693099976000,"Copenhagen City","Copenhagen City"
244791066175216,"2700 Cates Ave.","",244791066175216,35.784599999999998,-78.671980000000005,"Alexander Residence Hall","Alexander Residence Hall"
659781204227776,"1  Westminster Bridge","England",659781204227776,51.500729200000002,-0.124625400000010,"Big Ben","Big Ben"
292069282,"53–55 rue de la Roquette","",398002880274511,48.856008219826997,2.375443412306900,"The Bootleg","The Bootleg"
491139,"","",109482215744237,-26.254439999999999,-49.518610000000002,"Rio Negrinho","Rio Negrinho"
227774737,"","",103096649730380,51.536600000000000,-0.203900000000000,"Kilburn, London","Kilburn"
544300729350182,"Greet Rd","",544300729350182,51.966459999999998,-1.963573300000000,"Winchcombe Steam Railway Station (GWSR)","Winchcombe Steam Railway Station (GWSR)"
387202981,"100 Table Top Rd","",105521886148233,51.508542886796000,-0.186303529665840,"Kensington Gardens","Kensington Gardens"
379533852444705,"33 Regency Square","",379533852444705,50.823268900000002,-0.149998400000000,"Artist Residence","Artist Residence"
215965508,"","",106093606088457,53.234200000000001,-0.536200000000000,"Lincoln, Lincolnshire","Lincoln"
1020009673,"","",112621745415708,13.081200000000001,80.275099999999995,"Chennai, India","Chennai"
1656383,"114 Clapham High Street","London, United Kingdom",410522505670620,51.463023592940999,-0.134790666997550,"The Two Brewers","The Two Brewers"
793433745,"","",635981816546072,53.378029419999997,-2.953670910000000,"Saint Michael's, Liverpool","Saint Michael's"
5147784,"","",114639405215273,38.627200000000002,-90.197800000000001,"St. Louis","St. Louis"
173944,"Marylebone Road","London, United Kingdom",360478850697,51.522709478936001,-0.154994687549600,"Madame Tussauds London","Madame Tussauds London"
609069491,"11 quai de Conti","Paris",102652156870,48.856999999999999,2.338699900000000,"Monnaie de Paris","Monnaie de Paris"
478648,"Stadhouderslaan 41","Den Haag, Netherlands",224432441398,52.089558201286003,4.280830737388700,"Gemeentemuseum Den Haag","Gemeentemuseum Den Haag"
213718059,"","",104044046298443,51.542000000000002,-0.023000000000000,"Hackney Wick","Hackney Wick"
1786695174890251,"358 Byres Road","Glasgow",1786695174890251,55.876988043449003,-4.291292077298200,"Fopp","Fopp"
235445983,"Piazza del Colosseo, 1","",524730554273031,41.891202723996002,12.491639800884000,"Colosseo, Roma, Italia","Colosseo"
321054,"Apsley Way,","London, United Kingdom",119232094796795,51.502665047008001,-0.151061641810580,"Wellington Arch","Wellington Arch"
1415093291930166,"","Ladywood, West Midlands",1415093291930166,52.478355762752997,-1.912066331518800,"Birmingham Canals","Birmingham Canals"
228139141,"","",107582152598459,53.578499999999998,-2.429900000000000,"Bolton","Bolton"
524009726,"","",103234833064749,22.683333000000001,58.549999999999997,"Ash Sharqiyah North Governorate","Ash Sharqiyah North Governorate"
229336241,"17-21 London Road","",150516834984868,51.241276274168001,-0.168141717924700,"The Sun Pub","The Sun Pub"
1016287165,"9 Cotton Street","Manchester, United Kingdom",1522360067987426,53.484291100000000,-2.229801200000000,"Rudy's Neapolitan Pizza - Ancoats","Rudy's Neapolitan Pizza - Ancoats"
215490253,"","",106314962738289,45.795319999999997,24.150641000000000,"Sibiu, Romania","Sibiu"
235760882,"","",106506816052676,36.530970000000004,-6.198060000000000,"Puerto Real, Spain","Puerto Real"
214499540,"","",114501048567266,52.382085231086002,4.639048237419400,"Haarlem, Netherlands","Haarlem"
26056,"Leake Street","",157915647591835,51.502194415169001,-0.115956684875470,"Leake Street Tunnel","Leake Street Tunnel"
1947228252212176,"21 Boulevard Jean-Baptiste Lebas","",1947228252212176,50.626651059063001,3.069383515194300,"Parc Jean-Baptiste Lebas","Parc Jean-Baptiste Lebas"
279347593,"","",154175187976060,51.017711020442000,-3.101332542503300,"Church of St. James, Taunton","Church of St. James"
287063760,"Csordakút utca","Budapest, Hungary",154601814438,47.484598387041998,19.310651051916000,"Noé Állatotthon Alapítvány","Noé Állatotthon Alapítvány"
561042,"71 Albion Street","Glasgow, United Kingdom",252663138119433,55.858447849312000,-4.244971505383500,"Merchant Square","Merchant Square"
736780008,"","",109595459060079,60.170800000000000,24.937500000000000,"Helsinki","Helsinki"
260452459,"","",104059782963918,45.560000000000002,-73.659999999999997,"Greater Montreal","Greater Montreal"
367909,"3700 O St NW","Washington, DC",8825331245,38.907621319645998,-77.077384604136000,"Georgetown University","Georgetown University"
329798081,"241 Victoria Park Road","London, United Kingdom",130656793645533,51.538509400000002,-0.043645000000000,"Idol Hair","Idol Hair"
227978025,"","",108423805849151,51.390768635518000,-0.634046945374760,"Sunningdale","Sunningdale"
11100843,"","",110432202311659,38.726100000000002,-9.139400000000000,"Lisbon, Portugal","Lisbon"
299944013846274,"Lewis Carroll Library 166 Copenhagen Street","Islington",299944013846274,51.537071599999997,-0.118953200000000,"London Borough Of Islington","London Borough Of Islington"
228614028,"","",112970398716844,54.070480000000003,-2.855230000000000,"Morecambe","Morecambe"
1615833,"St James Mount","Liverpool, United Kingdom",142181131668,53.397897673827998,-2.973279276577900,"Liverpool Cathedral","Liverpool Cathedral"
229085212,"","",113195948691667,50.758420000000001,-1.297880000000000,"Cowes, Isle Of Wight, United Kingdom","Cowes"
2321713954526842,"","",2321713954526842,41.011353000000000,-74.320260000000005,"Tastefully British","Tastefully British"
631021310,"","NAUCALPAN DE JUÁREZ",1628236074068754,19.508137288522001,-99.274612404498996,"Mordor","Mordor"
278457732527763,"","London, United Kingdom",278457732527763,51.492002499999998,-0.125688500000000,"BrexitCentral","BrexitCentral"
602918406566249,"Victoria Embankment","",602918406566249,51.502830435682000,-0.123801040227270,"New Scotland Yard, Metropolitan Police Service, Richmond Terrace, London","New Scotland Yard"
416255565477981,"Strada Maggiore","",416255565477981,44.491553635001999,11.353572454982000,"Brexit Strada Maggiore Bologna","Brexit Strada Maggiore Bologna"
216528236,"","",111765802185353,51.486835312678998,-0.267358167680410,"Chiswick, United Kingdom","Chiswick"
1098425500264615,"54 N.11th Street","Brooklyn, New York",1098425500264615,40.722189999999998,-73.958990000000000,"Schimanski","Schimanski"
237820886,"","",203524969847567,48.868899999999996,2.393960000000000,"Rue du Retrait","Rue du Retrait"
1023271379,"","",717563584998266,50.720100000000002,-1.114840000000000,"Seaview","Seaview"
1003568472,"30 Leicester Square","London, United Kingdom",558216877553853,51.510252399999999,-0.129354200000000,"Global","Global"
251510990,"34 Thurloe Pl ","",618565271546020,51.494673700000000,-0.174324100000000,"The Hoop and Toy","The Hoop and Toy"
256991378,"Bumpers Way","Chippenham, United Kingdom",184544578245504,51.465463743000001,-2.142617321000300,"Bumpers Farm Ind Est","Bumpers Farm Ind Est"
2095801023805165,"","",2095801023805165,51.496696000000000,-0.125548210000000,"Sky News, Millbank","Sky News"
228396124,"Al FAHIDI","Dubai, United Arab Emirates",149601588401255,25.264159164953000,55.300507105130002,"The Sheikh Mohammed Centre for Cultural Understanding","The Sheikh Mohammed Centre for Cultural Understanding"
338704512,"","",430733150272358,51.488262588763000,-0.124186554082040,"Thems River","Thems River"
1271490,"87-135 Brompton Road","London, United Kingdom",188213917457,51.499495260952998,-0.163079732285420,"Harrods","Harrods"
826537920857723,"Re:Centre, Thames Wharf, Rainville Road","London, United Kingdom",826537920857723,51.483794988303998,-0.224273793381460,"Re:Centre","Re:Centre"
219554149,"","",110336295660526,52.059399999999997,1.155600000000000,"Ipswich, Suffolk","Ipswich"
224762251,"Islington Green","",249835038443782,51.535837723039997,-0.103837404374500,"Upper Street, Angel","Upper Street"
12582471,"16 King Street","",165503206804491,51.511269700000000,-0.124994300000000,"HSBC","HSBC"
228575358,"48 Frome Road","Bradford-on-Avon, United Kingdom",270339566376800,51.341605557214002,-2.252053613385800,"The Lock Inn Cafe","The Lock Inn Cafe"
240803743,"","",115777371770845,51.533299999999997,-0.316667000000000,"Perivale, Slough, United Kingdom","Perivale"
229716529,"East Bridge St","",102626779790727,54.594514600004999,-5.917295063680300,"Belfast Central railway station","Belfast Central railway station"
232881007,"","",111799325514473,51.405700000000003,0.014930000000000,"Bromley, Bromley, United Kingdom","Bromley"
213057678,"University Offices, Wellington Square, OX1 2JD Oxford, Oxfordshire","Oxford, United Kingdom",16686610106,51.755735965612999,-1.254890510036700,"University of Oxford","University of Oxford"
289100622,"194-196 Sussex Way ","London, United Kingdom",14468755270,51.564706653504999,-0.121686333299030,"North Nineteen","North Nineteen"
228713563,"","",105453406154838,51.223149999999997,1.403270000000000,"Deal, Kent","Deal"
224158538476298,"","",224158538476298,25.452330000000000,81.882760000000005,"Kumbh Prayagraj 2019","Kumbh Prayagraj 2019"
393084315,"","",143799518967443,51.512500000000003,-0.104166666666670,"Blackfriars, London","Blackfriars"
109900,"Dover Castle -Castle Hill Road - Dover","Dover, United Kingdom",220279247989966,51.127897017749000,1.321968587295300,"Dover Castle","Dover Castle"
215257505680224,"61 Goodge Street","",215257505680224,51.518995820569998,-0.136610613701060,"London Cocktail Club Goodge Street","London Cocktail Club Goodge Street"
9504,"Lansdowne Road","Dublin, Ireland",49766818381,53.334961367058000,-6.228543410309000,"Aviva Stadium","Aviva Stadium"
525849727588554,"Douglas St Unit 320","Victoria, BC",525849727588554,48.427689000000001,-123.368921999999998,"Aggregateiq Data Services Ltd","Aggregateiq Data Services Ltd"
1083678,"Gower Street","London, United Kingdom",92637159209,51.524707290914002,-0.134561392059000,"UCL","UCL"
342604967,"","London, United Kingdom",188027091184,51.511987645270999,-0.122694969177250,"Covent Garden London","Covent Garden London"
373501169506957,"","",373501169506957,51.500000000000000,-0.116667000000000,"Royaume-Uni","Royaume-Uni"
52751,"Exhibition Road, South Kensington","London, United Kingdom",7408594675,51.497292992767001,-0.174723516319830,"Science Museum","Science Museum"
1324484590981890,"","Maidenhead, Berkshire",1324484590981890,51.508693800000003,-0.731032300000000,"Roman Baths, Bath, England","Roman Baths"
215902463,"","",108228399212088,53.271900000000002,-9.048890000000000,"Galway, Ireland","Galway"
7296687,"","",108299645860446,53.383299999999998,-1.466700000000000,"Sheffield","Sheffield"
789534331,"","",885413981520970,51.554351384999997,-0.074794065000000,"Stoke Newington Central, London","Stoke Newington Central"
1964074810559769,"","",1964074810559769,51.497494799999998,-0.135658299999930,"Westminster","Westminster"
513851832,"The Shard, 11th Floor, 32 London Bridge Street","London, United Kingdom",159283314083891,51.499909700000004,-0.132375600000000,"Dods Parliamentary Communications","Dods Parliamentary Communications"
1766354720247016,"159 Manchester Rd","London",1766354720247016,51.489134499999999,-0.006918900000000,"Isle of Dogs, East End, London","Isle of Dogs"
226162719,"","",103996996305177,51.548055555555997,-0.517777777777780,"M25 motorway","M25 motorway"
256030059,"","",108660789158794,-26.649999999999999,153.067000000000007,"Sunshine Coast, Queensland","Sunshine Coast"
245323972255632,"17 Mt Street Upper","Dublin, Ireland",245323972255632,53.337609999999998,-6.245650000000000,"Abrivia Recruitment","Abrivia Recruitment"
226880,"1 Canons Road, Harbourside","Bristol, United Kingdom",115688245276,51.451814922555002,-2.597644319523200,"Watershed","Watershed"
212970049,"","",112456468765632,34.073470000000000,-118.400329999999997,"Beverly Hills, California","Beverly Hills"
214289039,"","",105811186126463,-22.725300000000001,-47.649200000000000,"Piracicaba, Brazil","Piracicaba"
301092442,"","",113019615379046,40.000000000000000,-3.000000000000000,"Spain","Spain"
5352557,"Seven Sisters Cliffs","",141654835877893,50.742840964682998,0.201095487505110,"Birling Gap","Birling Gap"
236188518,"Malhar Mega Mall A.B.Road 2nd Floor","Indore, India",348662021870322,22.744527458737000,75.894152144583998,"10 Downing Street","10 Downing Street"
228417423,"Carville Durham","Durham, Durham",141405859236611,54.794728025710000,-1.515249653146800,"Ramside Hall","Ramside Hall"
213255504,"","",108869299146813,52.139209999999998,-0.463690000000000,"Bedford, Bedfordshire, United Kingdom","Bedford"
183432182055909,"Houses of Parliament, Westminster","Westminster",183432182055909,51.500320000000002,-0.124920000000000,"UK House of Commons","UK House of Commons"
261595371,"Wilhelmstrasse 70","Berlin, Germany",130974066970817,52.515663516021000,13.381062621924000,"British Embassy Berlin","British Embassy Berlin"
238607536496644,"رام الله/شارع ركب/فوق حلويات جعفر","",238607536496644,31.904287802599999,35.200999252599999,"Aleppo Cafe","Aleppo Cafe"
347175435,"Reindorfgasse 42","Vienna, Austria",1441813092728032,48.190849999999998,16.330179999999999,"Improper Walls","Improper Walls"
415053453,"31 Churton Steet,","London, United Kingdom",264971060364748,51.491261399999999,-0.138832100000000,"TheRoasting","TheRoasting"
229863386,"","",113005262043962,51.301800000000000,-0.114300000000000,"Old Coulsdon","Old Coulsdon"
833567426755306,"","Strathcarron, Highland, United Kingdom",833567426755306,57.435593061441999,-5.595475652855800,"Couldoran House","Couldoran House"
259851773,"","",104309266271943,52.763300000000001,6.356400000000000,"Ruinen","Ruinen"
341478539587475,"","",341478539587475,53.804558999999998,-1.532055000000000,"Leeds UK","Leeds UK"
213188040,"","",111812165504902,37.377200000000002,-5.986940000000000,"Seville, Spain","Seville"
292603311340501,"12 Bridge street  Parliament square","",292603311340501,51.501144699999998,-0.125887299999930,"Parliament of Westminter","Parliament of Westminter"
1021964371,"Waldweg 1-3","Braak",221179234589430,53.618499870000001,10.234200059999999,"Sterac Transport & Logistik GmbH","Sterac Transport & Logistik GmbH"
567585844,"","",103115216394994,32.000000000000000,53.000000000000000,"Iran","Iran"
412938008,"","",110324582321867,52.616700000000002,39.600000000000001,"Lipetsk, Russia","Lipetsk"
479058627,"","",109462705740221,46.026440000000001,1.924510000000000,"La Chapelle-Saint-Martial","La Chapelle-Saint-Martial"
256031955,"","",129892100396767,38.215774347838000,15.635647593062000,"Reggio Calabria","Reggio Calabria"
1836984339685159,"Avenida de Europa 2 Centro Comercial Alcor Plaza","Madrid",1836984339685159,40.350587693999998,-3.846302591000000,"Sapiens Escape Room","Sapiens Escape Room"
283115885496791,"","London, United Kingdom",283115885496791,51.509737406798003,-0.134582519531250,"Piccadilly Circus","Piccadilly Circus"
244611738,"","London, United Kingdom",104587303046522,51.543772902809003,-0.015063285827637,"Queen Elizabeth Olympic Park","Queen Elizabeth Olympic Park"
213045606,"st paul's churchyard","London, United Kingdom",78127040067,51.513791844453998,-0.099283439759927,"St. Paul's Cathedral","St. Paul's Cathedral"
159462134504753,"","Folkestone",159462134504753,51.087973800000000,1.147108900000000,"Euro Star Tunnel","Euro Star Tunnel"
1695699997424550,"","",1695699997424550,30.363060000000001,78.062150000000003,"U.K","U.K"
824076426,"","",1112126685469256,15.401944000000000,74.043333000000004,"Goa","Goa"
229795782,"Canalside St Michaels Road, Bilsborrow","Garstang",352926071485651,53.850282784173999,-2.748159885755100,"Owd Nells Tavern","Owd Nells Tavern"
213663063,"Airport Way","Luton",163914683662328,51.879865106000999,-0.376022794202200,"London Luton Airport","London Luton Airport"
214639015,"44 Parliament St","",110645555654969,51.500555555555998,-0.126666666666670,"Parliament Square","Parliament Square"
242002951,"Parliament Street","",111326398888871,28.617222222222001,77.208055555556001,"Parliament of India","Parliament of India"
864989,"2 Arrow St","Cambridge, MA",123465264176,42.370939999999997,-71.114300000000000,"OBERON","OBERON"
273644157,"","",112260482126973,50.716700000000003,-3.950000000000000,"Belstone, Devon","Belstone"
302858804,"","",110246788997810,-26.166699999999999,28.033300000000001,"Westcliff","Westcliff"
107481562,"","",115162238495931,50.733300000000000,7.100000000000000,"Bonn, Germany","Bonn"
216966219,"Liverpool Road","Manchester, United Kingdom",114806971906085,53.477045596609003,-2.254773308999600,"Science and Industry Museum","Science and Industry Museum"
909058749,"","",103972526306687,48.624166666667001,-116.483611111109994,"Ruby Ridge","Ruby Ridge"
943873858,"Leake Street","",572987872735614,51.501062598966001,-0.114541053771970,"The Vaults","The Vaults"
231383754,"","",104209366281077,51.507222222221998,-0.127500000000000,"London","London"
867796584,"","",361931910664321,51.447610789999999,-0.018153210000000,"Rushey Green, London","Rushey Green"
441789642550352,"338 Norwood Road","London, United Kingdom",441789642550352,51.434837299999998,-0.104118800000000,"Baron-Polish & Brazilian Deli","Baron-Polish & Brazilian Deli"
200671230719718,"410 Oberlin Rd","Raleigh, NC",200671230719718,35.790109999999998,-78.662520000000001,"Wake County Public Libraries","Wake County Public Libraries"
217602307,"","",108217102545594,51.507222222221998,-0.127500000000000,"London, England, UK","London"
231437459,"Victoria St","",113419878668502,51.494999999999997,-0.144167000000000,"London Victoria station","London Victoria station"
227167218,"","",110385832346050,55.871499999999998,-4.277400000000000,"Woodlands, Glasgow","Woodlands"
236710513,"","",112526745427111,18.016700000000000,-63.033299999999997,"Philipsburg, Netherlands Antilles","Philipsburg"
235394016847808,"18-21 Tuckey Street ","Cork",235394016847808,51.896970000000003,-8.475920000000000,"TipTop","TipTop"
212912274,"30 Hawley Crescent, Camden Town","",134536206730873,51.540933921117997,-0.143955232757430,"Poppies Fish and Chips in Camden","Poppies Fish and Chips in Camden"
244523766,"1 St James's Square","London, United Kingdom",345463602161853,51.507637607386002,-0.134472673712400,"BP","BP"
215125488,"1 Place de la Porte de Versailles","Paris, France",261700460564620,48.830207015166998,2.289009292688300,"Parc Des Expositions (Paris Expo)","Parc Des Expositions (Paris Expo)"
310292892758055,"17–19 Davies Street","",310292892758055,51.511000000000003,-0.147540000000000,"Gagosian","Gagosian"
228334243,"520 Langside Rd","",123600071018079,55.830399999999997,-4.267760000000000,"Queen's Park, Glasgow","Queen's Park"
222222505,"Tower Bridge","",208165572541003,48.874702270000000,2.357981560000000,"Tower Bridge, London","Tower Bridge"
223434732,"Mile End","",321664954538218,51.526144669402001,-0.039045496391430,"Regents Canal, Mile End","Regents Canal"
266632,"","",108418852516622,54.176910000000000,-6.341550000000000,"Newry","Newry"
2151513451554167,"","",2151513451554167,50.749949999999998,0.183312000000000,"Seven Sisters Cliffs","Seven Sisters Cliffs"
1229499800537464,"King's Rd","",1229499800537464,51.490697200000000,-0.158716499999970,"Saatchi Gallery","Saatchi Gallery"
139711,"Rosa-Luxemburg-Platz","",158369564062,52.526777074706999,13.411560923814999,"Volksbühne Berlin","Volksbühne Berlin"
214696013,"","",110519355635992,51.899999999999999,-2.077600000000000,"Cheltenham, Gloucestershire","Cheltenham"
523404808032071,"20-22 rue Pascal","",523404808032071,48.837969999999998,2.349300000000000,"Hôtel Monte Cristo","Hôtel Monte Cristo"
216094219,"Blackett St","",119843304729128,54.973705233148998,-1.613122635210600,"Grey's Monument","Grey's Monument"
214818324,"","",114912541853133,-41.288899999999998,174.776999999999987,"Wellington, New Zealand","Wellington"
318909702023338,"642/3 Al Khaleej Al Arabi St","",318909702023338,24.447310000000002,54.365982000000002,"Nigerian Embassy","Nigerian Embassy"
1011759254,"Matley's Yard Artist Studios","Winchester, Hampshire",450928208408974,51.056758899999998,-1.308220000000000,"O What A Feeling: Textile & Paper Goods Co.","O What A Feeling: Textile & Paper Goods Co."
332986834151533,"Harrods","",332986834151533,51.499650000000003,-0.163540000000000,"Harrods","Harrods"
233089642,"","",106516966050780,56.678800000000002,-5.132990000000000,"Ballachulish, Highland","Ballachulish"
227864569,"","",112302522114311,54.751750000000001,-6.000030000000000,"Ballyclare","Ballyclare"
214397193,"","",106408566062300,-34.883299999999998,-56.166699999999999,"Montevideo, Uruguay","Montevideo"
228600058,"Estrada da Quinta do Lago","",315548445175165,37.063616952371000,-8.029011362933600,"Conrad Algarve","Conrad Algarve"
325309291174478,"","London",325309291174478,51.502237999999998,-0.188813200000000,"No10 Downing Street","No10 Downing Street"
983757483,"Corfu, Greece","",500582660118783,39.672027523768001,19.702635077585000,"Greek Islands","Greek Islands"
251317292,"","",104121719623219,46.426111111110998,0.870833333333330,"Montmorillon","Montmorillon"
234511901,"","",134321583257729,34.111939999999997,-118.198059999999998,"Highland Park, Los Angeles","Highland Park"
1745758,"Kennington Park Road","London, England",165238940156740,51.489461069697000,-0.105006390630340,"The Old Red Lion","The Old Red Lion"
215040433,"","",119271318119306,51.500000000000000,-0.190000000000000,"Royal Borough of Kensington and Chelsea","Royal Borough of Kensington and Chelsea"
518190,"Strand London","London, United Kingdom",8481421869,51.511067605732997,-0.117144644581490,"Somerset House","Somerset House"
689357264737656,"","",689357264737656,51.870784000000000,0.155103900000000,"Brexit Survival Packs","Brexit Survival Packs"
246869334,"Notting Hill Gate","",116550501726113,51.508788061723003,-0.196285241057790,"Notting Hill Gate tube station","Notting Hill Gate tube station"
360613013,"","",111788408838882,51.577979999999997,-0.337410000000000,"Harrow, United Kingdom","Harrow"
26605646,"2 High Bridge","",155178227844415,54.971235513158000,-1.613293602631600,"Beehive","Beehive"
250525610,"London W1","London, United Kingdom",134381683276193,51.509982395629997,-0.135592369144620,"Regent Street","Regent Street"
216605856,"","",109289649089579,-29.949999999999999,-50.983300000000000,"Gravataí","Gravataí"
228034695,"","",109643139061272,51.433300000000003,-0.783333000000000,"Binfield","Binfield"
1016630236,"","",153442191356590,51.503410000000002,-0.127650000000000,"Downing Street","Downing Street"
53922,"105a Commercial St","London, United Kingdom",122334647788317,51.519598694940001,-0.075776925829314,"Old Spitalfields Market","Old Spitalfields Market"
2569025,"First Floor, Casket Works, Cow Lane","Salford, United Kingdom",124911564200910,53.480256251245997,-2.267331678718600,"Hot Bed Press","Hot Bed Press"
1002062095,"Kennel Lodge Rd, Bower Ashton","Bristol, United Kingdom",240166176029657,51.443681887754003,-2.632354072622300,"City Campus - UWE","City Campus - UWE"
1443326,"1115 8th Ave","Grinnell, IA",16164303402,41.752322310391001,-92.720023363048995,"Grinnell College","Grinnell College"
475846975850078,"","Liberty, Missouri",475846975850078,39.076300000000003,-94.555400000000006,"New World Orders","New World Orders"
213758502,"","",104153936288668,43.446500000000000,-79.700100000000006,"Oakville, Ontario","Oakville"
508443879,"10 Hog Hill Road","Romford, United Kingdom",113197032054746,51.598086474001001,0.152428201499640,"collier row glass","collier row glass"
275646878,"Holyrood Road","",221175967987857,55.952124583333003,-3.174169050000000,"Holyrood Scottish Parliament","Holyrood Scottish Parliament"
1568718193366249,"","",1568718193366249,51.500000000000000,-0.124722222222000,"Westminster Hall","Westminster Hall"
80388,"","London, United Kingdom",72228529722,51.519144089134002,-0.126676679075700,"British Museum","British Museum"
229931275,"","",108213505869178,53.330694436831003,-3.109373744021100,"Heswall","Heswall"
176958275691846,"","",176958275691846,15.114408700007999,105.815868625009998,"Laos - Cambodia Border","Laos - Cambodia Border"
215835388,"Route de Pré Long","Saint-Chaffrey",100541005744,44.947411695002003,6.557271480560300,"Serre Chevalier Briançon","Serre Chevalier Briançon"
1030285030,"8 Boulevard Général Pierre Koenig","Nantes",293923950808075,47.197460000000000,-1.608100000000000,"BIER Market","BIER Market"
266258467359015,"Fatih Mahallesi Yıldız Evler","",266258467359015,38.631542000000003,34.935676999999998,"Oh,fuck it.","Oh"
1226177137416566,"53a Southwark Street","",1226177137416566,51.504706200000001,-0.094924100000000,"Bunker Theatre UK","Bunker Theatre UK"
274838668,"Hartspring Lane","Watford, United Kingdom",523886957691509,51.663590163179002,-0.361314532508140,"Costco Wholesale UK","Costco Wholesale UK"
1137046319651105,"156 wells way","",1137046319651105,51.479952200000000,-0.085612700000000,"ROMA TRANS  PARTY London","ROMA TRANS  PARTY London"
215004623,"Egham Hill","Egham, United Kingdom",6449932074,51.426740000000002,-0.566210000000000,"Royal Holloway, University of London","Royal Holloway"
397940502,"The National Assembly for Wales, Cardiff Bay","Cardiff, United Kingdom",110558639005591,51.463513295986999,-3.162712445800600,"Senedd","Senedd"
188112658255171,"3245 Amber St","Philadelphia, Pennsylvania",188112658255171,39.992720100000000,-75.108625000000004,"The Institute for Abstract Savagery","The Institute for Abstract Savagery"
242250709,"","",103774662994143,49.733333333333000,19.033333333333001,"Szczyrk","Szczyrk"
5136181,"Grand Parade","Eastbourne, United Kingdom",119774391390778,50.764594844165998,0.289464171593800,"Eastbourne Bandstand","Eastbourne Bandstand"
344251759,"","",135812419786730,44.750000000000000,11.000000000000000,"Emilia-Romagna","Emilia-Romagna"
213894294,"","",110212755674509,52.633299999999998,-1.133330000000000,"Leicester, United Kingdom","Leicester"
213274392,"","",107847249250173,52.205328000000002,0.121708000000000,"Cambridge, Cambridgeshire","Cambridge"
218394937,"Most Southwestern Point","",105943529437182,-34.358055555556000,18.471944444443999,"Cape of Good Hope","Cape of Good Hope"
480203819123978,"74 Otley Old Road","",480203819123978,53.848624854187001,-1.603794693946800,"Residence 74 Cafe & Bar","Residence 74 Cafe & Bar"
240157625,"","",112957685385815,52.523879999999998,5.714209900000000,"Dronten","Dronten"
214928415,"","",108023362564746,51.751899999999999,-1.257800000000000,"Oxford, Oxfordshire","Oxford"
856262280,"5, Avenue du Rock 'n Roll","Esch-sur-Alzette",367459757619,49.499796649296002,5.947973470563300,"Rockhal","Rockhal"
359711423,"","",111126958910952,50.814711000000003,-0.371386000000000,"Worthing, West Sussex","Worthing"
114805,"St Fagans","",109639082395066,51.486899999999999,-3.272500000000000,"St Fagans National Museum of History","St Fagans National Museum of History"
350642071647644,"Av. Reino de Valencia, n°15, pta. 5","Valencia",350642071647644,39.464590000000001,-0.371100000000000,"Miñana Beltran Economistas y Abogados","Miñana Beltran Economistas y Abogados"
602008,"Saint-Louis, France","Saint-Louis, France",140607112652288,47.599188247773000,7.530982450542200,"EuroAirport Basel Mulhouse Freiburg","EuroAirport Basel Mulhouse Freiburg"
215861910,"","",108461749184998,52.629199999999997,1.297700000000000,"Norwich, Norfolk","Norwich"
213232307,"","",106013482772674,42.683300000000003,23.316700000000001,"Sofia, Bulgaria","Sofia"
756930507987527,"Euston Road, London N1 9AP","",756930507987527,52.392615999999997,0.133778570000000,"London Kings Cross Railway Station","London Kings Cross Railway Station"
1029425627,"11 quai de Conti","",1682603652008386,48.856999999999999,2.338699900000000,"Monnaie de Paris","Monnaie de Paris"
217014039,"","",115520908461931,62.233300000000000,25.733300000000000,"Jyväskylä, Finland","Jyväskylä"
262876882,"Czerska 8/10","Mokotów, Warszawa, Poland",76134197129,52.203479999999999,21.045980000000000,"Radio TOK FM","Radio TOK FM"
400111455,"58-72 Upper Ground","",447196765423267,51.508321893697001,-0.110969425549230,"Observation Point, Southbank","Observation Point"
236789771,"465 & 405 W 23rd St, 470 & 410 W 24th St Between 9th and 10th Avenues","New York, NY",120844141270490,40.748028402018001,-74.003480069915000,"London Terrace Towers in West Chelsea","London Terrace Towers in West Chelsea"
824476917733311,"","",824476917733311,51.518463972439001,-0.207130908966060,"Portobello Road","Portobello Road"
47599,"Wivenhoe Park","Colchester, United Kingdom",6137001818,51.876115346592002,0.946339756052370,"University of Essex","University of Essex"
12222710,"","",109840709042335,51.444629999999996,0.220570000000000,"Dartford","Dartford"
214544461,"","",114536345230173,26.220800000000001,50.584899999999998,"Manama, Bahrain","Manama"
561473812,"23 Newport Road, Parkwood","Johannesburg, South Africa",119481876687,-26.151340000000001,28.034289999999999,"THE PROMISE LAND","THE PROMISE LAND"
150552783075,"Building 14, Dubai Media City","Dubai, United Arab Emirates",150552783075,25.095507724906000,55.155406268935003,"ITP Media Group","ITP Media Group"
128418,"Walton Hall","",7084005675,52.025064445675000,-0.709285298958820,"The Open University","The Open University"
236987180,"","",104039986298008,59.516700000000000,17.250000000000000,"Knivsta","Knivsta"
63304,"Hammersmith Road, Kensington","London, United Kingdom",173952282659030,51.496504423581001,-0.210323694580350,"Olympia London","Olympia London"
2107030639516532,"台北市大安區光復南路240巷26號","",2107030639516532,25.040790456250001,121.556423068749993,"Lady M","Lady M"
18307985,"jalan permata jingga 1","Malang, Indonesia",182894481727866,-7.931754181000000,112.618306223999994,"Swimming Pool Permata Jingga","Swimming Pool Permata Jingga"
231580669,"","",116742111732286,54.214480000000002,-5.893070000000000,"Newcastle, United Kingdom","Newcastle"
318275833,"Collingwood St","Newcastle upon Tyne",69863968869,54.969731607565997,-1.614046225514200,"Revolution Newcastle","Revolution Newcastle"
227998422,"","",108487335848808,51.484139999999996,-0.306700000000000,"Brentford, United Kingdom","Brentford"
261295694226638,"","",261295694226638,-37.840672634999997,144.860323017500008,"Altona North","Altona North"
215526453,"","",106297619405550,-43.530000000000001,172.620000000000005,"Christchurch, New Zealand","Christchurch"
617331509,"","",798188313597194,50.593917160227001,-3.687543869018600,"Dartmoor National Park","Dartmoor National Park"
3741647,"Whitehall Place","London, United Kingdom",171854479522661,51.506464558395997,-0.124545940235940,"Corinthia Hotel London","Corinthia Hotel London"
1193988130621298,"Kens street, Model Town","New York, New York",1193988130621298,40.570020000000000,-74.138130000000004,"Tag a Friend","Tag a Friend"
228575234,"","",132174873484202,51.490000000000002,-0.220000000000000,"Barons Court","Barons Court"
215793871,"","",103759492996379,51.503780999999996,-0.204417000000000,"Holland Park","Holland Park"
219197352,"Deptford High Street","",137028816320687,51.478881031897998,-0.026487785144068,"Deptford railway station","Deptford railway station"
1731258453838319,"Canada Square","E14, London",1731258453838319,51.505235912000003,-0.021941288499811,"Canary Wharf London City","Canary Wharf London City"
222023766,"","",114703158546342,51.750000000000000,-0.333333000000000,"Saint Albans","Saint Albans"
225481160,"32 London Bridge Street","London, United Kingdom",224103870987123,51.504365482254997,-0.086515471274959,"The Shard London","The Shard London"
265093516,"Rosslare","",111802752169626,52.252202359243000,-6.335527086175800,"Rosslare Europort","Rosslare Europort"
211363413,"","",109237295760708,51.539600000000000,-0.160800000000000,"Primrose Hill","Primrose Hill"
1261326807314487,"132 George Lane","",1261326807314487,51.593167169296997,0.025539994239807,"Costa Coffee","Costa Coffee"
264770713,"Swords Town Park","Swords, Dublin",207311359287277,53.459735997791000,-6.220336259366700,"Swords Castle Park","Swords Castle Park"
736090278,"","",1009406542434795,51.461735009999998,-0.228272870000000,"West Putney, London","West Putney"
225966485,"Praed St","",135227579842178,51.517222222222003,-0.173055555555560,"St Mary's Hospital, London","St Mary's Hospital"
412527257,"","",108455059183961,54.700000000000003,-3.266670000000000,"Sunderland, Cumbria, United Kingdom","Sunderland"
225297875,"","",108101485885534,44.500000000000000,34.166699999999999,"Yalta","Yalta"
335861020507425,"","",335861020507425,51.123542999999998,1.313989000000000,"Banksy Anti-Brexit Mural","Banksy Anti-Brexit Mural"
2824302,"","",112413378770132,51.509999999999998,-0.593100000000000,"Slough","Slough"
478697322493530,"92 Bramley Road ","London, United Kingdom",478697322493530,51.514127150001002,-0.217284049998930,"Pig & Whistle Pub","Pig & Whistle Pub"
861452041,"","",579553232137206,48.856499999999997,2.338800000000000,"Le Musée du 11 Conti - Monnaie de Paris","Le Musée du 11 Conti - Monnaie de Paris"
799741613,"","",137554122934075,56.516700000000000,-5.947500000000000,"Salen, Mull","Salen"
242101728,"","",108283462533416,53.416699999999999,-1.283330000000000,"Wickersley","Wickersley"
1612800178780014,"Uk Terminal, Ashford Road","Folkestone",1612800178780014,51.094562900000000,1.106722300000000,"Eurotunnel","Eurotunnel"
335915458,"","",105861892778596,51.515833333332999,-0.092222222222222,"City of London","City of London"
116872071776056,"73, rue Adolphe Fischer","Luxembourg, Luxembourg",116872071776056,49.731580933479996,6.086425781250000,"European Table Tennis Union","European Table Tennis Union"
659803585,"129 Bedwell Cresent, Stevenage","Stevenage",79990903241,51.901855085500003,-0.188740419500010,"The Poacher Pub","The Poacher Pub"
360599236,"","",209702062375374,51.143324209353999,5.937304794037000,"Limburg, Netherlands","Limburg"
216491617,"","",111247065566297,52.149999999999999,4.500000000000000,"Leiden, Netherlands","Leiden"
85683156268,"221 Nicholson Street, Brunswick East VIC 3157","",85683156268,-37.767560000000003,144.980029999999999,"Triple R - 3RRR 102.7FM","Triple R - 3RRR 102.7FM"
214967353,"Canary Wharf","",103219783067187,51.505200000000002,-0.028691700000000,"Canary Wharf Pier","Canary Wharf Pier"
2027664030845098,"Pendle","Clitheroe, Lancashire",2027664030845098,53.868467045331002,-2.298496797977400,"Pendle Hill","Pendle Hill"
1029641900,"","Bristol, United Kingdom",187204784972688,51.458507599999997,-2.603539000000000,"Bristol UK","Bristol UK"
443380481,"","",214146025275052,51.500555555555998,-0.126666666666670,"Parliament Square","Parliament Square"
213339221,"Baumgasse 80","Wien, Austria",108495466905,48.187369068957999,16.412599646806001,"ARENA WIEN","ARENA WIEN"
1765668966983777,"110 Portswood Road","",1765668966983777,50.923263900000002,-1.394958800000000,"7Bone Burger Co","7Bone Burger Co"
649039807,"The Parrog","Goodwick, United Kingdom",314749961921644,52.001121667786997,-4.991600190429700,"Goodwick Scout Group","Goodwick Scout Group"
281378565831694,"2-10 Bethnal Green Road","",281378565831694,51.523508000000000,-0.076447300000041,"BOXPARK Shoreditch","BOXPARK Shoreditch"
435729,"","",106076432757037,50.719999999999999,-1.880000000000000,"Bournemouth","Bournemouth"
210443817,"31 Carnaby St","London, United Kingdom",190789686708,51.513390000000001,-0.139080000000000,"Carnaby London","Carnaby London"
227767745,"155 West Port","Edinburgh, United Kingdom",165710580183878,55.946071500000002,-3.201689700000000,"Lovecrumbs","Lovecrumbs"
283908582,"","",103948026308258,50.933888888889001,-3.939444444444400,"Burrington, Devon","Burrington"
371742839,"Store Sandungen","",305908072818953,59.879433328387002,10.370068617719999,"Sandungen I Vestmarka","Sandungen I Vestmarka"
1026542666,"Calle Gerona 18","Benidorm, Spain",1029977030410129,38.537425700000000,-0.117635800000000,"Inkaholics Tattoo Studio","Inkaholics Tattoo Studio"
213682323,"","",110507998976900,48.149999999999999,17.116700000000002,"Bratislava, Slovakia","Bratislava"
212918250,"","Manchester, United Kingdom",142744552479387,53.483908790400001,-2.236533164978000,"Northern Quarter, Manchester","Northern Quarter"
724319746,"92 Pottergate","Norwich, Norfolk",877264052318390,52.630505119223997,1.287302024257000,"MicawbersTavern Norwich","MicawbersTavern Norwich"
229947054,"Aston Quay, Clontarf, Dun Laoghaire, Leopardstown, Sandymount, Westmanstown.","Dublin, Ireland",128559620512772,53.363839842879997,-6.228019265855000,"West Wood Club","West Wood Club"
422465893,"Langdon Cliffs, Upper Road, Dover, Kent, CT16 1HJ","Dover, Kent",383327241718699,51.131865214047998,1.339017999605900,"White Cliffs of Dover","White Cliffs of Dover"
231396211,"100 Longwater Avenue","",125585280930822,51.426222365126002,-0.987624121310730,"Green Park","Green Park"
71244980,"54-56, Camden Lock Place","London, United Kingdom",109638199300,51.541269764593999,-0.145743799966820,"Camden Market","Camden Market"
155092395134815,"","Camden",155092395134815,51.518412200000000,-0.119321700000000,"Canary Wharf","Canary Wharf"
259916533,"","",110700052284680,54.232740000000000,-1.342060000000000,"Thirsk, North Yorkshire","Thirsk"
1017845480,"Fish Street Hill","London, United Kingdom",1002514193142883,51.510204568543998,-0.085804424819369,"The Monument","The Monument"
723111568053223,"900 Sylvan Ave","",723111568053223,40.894489999999998,-73.942763999999997,"CNBC Headquarters","CNBC Headquarters"
2143168379279645,"Jalan Taman Siswa Ruko Grand Nirwana Residence (Depan mwnara air PDAM Brebes)","Brebes, Jawa Barat, Indonesia",2143168379279645,-6.882500000000000,109.045119999999997,"Cafe Milk 3","Cafe Milk 3"
213392491,"","",105789409461096,51.275970000000001,1.075610000000000,"Canterbury, Kent","Canterbury"
442279,"St Martin’s Place","London, United Kingdom",213441154663,51.509429384705001,-0.127977232908330,"National Portrait Gallery","National Portrait Gallery"
213094275,"","",106505586052951,59.330700000000000,18.060500000000001,"Stockholm, Sweden","Stockholm"
116127,"Trafalgar Square","London, United Kingdom",83395535556,51.509051216476998,-0.128096177802190,"National Gallery","National Gallery"
213466096,"","",106233566079281,55.857999999999997,-4.259000000000000,"Glasgow, United Kingdom","Glasgow"
211341779,"","",266162463506493,22.280000000000001,114.159444444439998,"HSBC Building","HSBC Building"
218601652,"The Strand Room M103","",111310548897816,51.513611111110997,-0.113333333333330,"Royal Courts of Justice","Royal Courts of Justice"
214122044,"","",102160693158562,47.384599999999999,8.531599999999999,"Zürich, Switzerland","Zürich"
4702060,"Bagshaw Hill","",144760252232359,53.214338746765002,-1.677785727858300,"Bagshaw Hall, Bakewell","Bagshaw Hall"
354231629,"","",185535851472391,52.391877770000001,13.546061990000000,"Berlin Schönefeld","Berlin Schönefeld"
227767614,"10 Downing Street","",7303343452,51.503300937109003,-0.127553595571340,"UK Prime Minister","UK Prime Minister"
982492630,"Westminster Bridge","",273345036092123,51.232697339730997,0.490709498157480,"Westminster Bridge  London","Westminster Bridge  London"
217214792,"","",106246432739927,50.833333333333002,-2.333333333333300,"Dorset","Dorset"
230675598,"","",115222745159804,57.506509999999999,-1.797220000000000,"Peterhead, Aberdeenshire","Peterhead"
408721,"Willem Einthovenstraat 1","Oegstgeest, Netherlands",212137627796,52.170388594395000,4.453395962979500,"CORPUS 'reis door de mens'","CORPUS 'reis door de mens'"
3169917,"Cockpit Yard, Northington Street","",156947145074,51.521496881701999,-0.116237406306180,"Cockpit Arts","Cockpit Arts"
244423800,"Kelvedon Hall Lane","",103282056392501,51.671799999999998,0.256556000000000,"Kelvedon Hatch Secret Nuclear Bunker","Kelvedon Hatch Secret Nuclear Bunker"
177680809602691,"50 Buckingham Palace","",177680809602691,51.496952499999999,-0.144904900000000,"Adrian's Bar & Bistro","Adrian's Bar & Bistro"
13435001,"The Avenue, Eaglescliffe","Stockton-on-Tees, United Kingdom",109472923296,54.528269845342002,-1.343147991370100,"Teesside High School","Teesside High School"
88014,"","",190376977677113,51.404425834232001,-0.340327437708560,"Hampton Court Palace","Hampton Court Palace"
213385402,"","",106078429431815,51.507114863623997,-0.127318052363530,"London, United Kingdom","London"
320007257,"","",109312942421526,54.597099999999998,-5.930100000000000,"Belfast","Belfast"
535800813543072,"calle 8 sur 8-41","Vector",535800813543072,3.889530000000000,-76.296909999999997,"Jarana gamers","Jarana gamers"
1980461645596401,"downing street","",1980461645596401,51.503169999999997,-0.127080000000000,"Brexit Britain","Brexit Britain"
1016535872,"The Phoenix Studio","Thame",173910372638571,51.736526628823000,-0.938519015016370,"The Phoenix Studio, Towersey","The Phoenix Studio"
1993043060940110,"","London",1993043060940110,51.507350899999999,-0.127758299999980,"Soho, London","Soho"
1073365,"46 Avenue Fonsny, Unit C5","Brussels, Belgium",117970428281347,50.835806261913000,4.335105786955400,"Gare de Bruxelles-Midi Station Brussel-Zuid","Gare de Bruxelles-Midi Station Brussel-Zuid"
15166261,"","",106466316056863,39.568700000000000,2.650900000000000,"Palma De Mallorca, Spain","Palma De Mallorca"
214485411,"","",108862122472386,51.463000000000001,-0.106000000000000,"Brixton","Brixton"
585164,"30 Old Compton Street","London, United Kingdom",148376865200372,51.513438000000001,-0.130976300000000,"G-A-Y","G-A-Y"
229103516,"","",110092169012550,51.084440000000001,1.177980000000000,"Folkestone, Kent","Folkestone"
232217271,"","",107754732581079,52.056699999999999,-0.852600000000000,"Stony Stratford","Stony Stratford"
282091481,"Schumann Platz","",105503902816099,50.843710623718003,4.382467210884000,"Berlaymont building","Berlaymont building"
232054525,"","",106043296093632,52.937500000000000,-0.802000000000000,"Bottesford, Leicestershire","Bottesford"
263966329,"5 Orbital Business Centre Unit 5&6","Waltham Abbey, United Kingdom",379854355427942,51.681245187507002,-0.001674412441694,"Beechhall Joinery","Beechhall Joinery"
354937162,"99 City Road","London, United Kingdom",317156988374684,51.525767213104999,-0.086539851584287,"Inmarsat","Inmarsat"
618399995021918,"Unit 93, Camden Stables Market","London, United Kingdom",618399995021918,51.542427254000003,-0.148271823000000,"The Cheese Bar - Camden","The Cheese Bar - Camden"
1929576623826498,"Islington","",1929576623826498,51.552006599999999,-0.087942900000030,"Newington Green","Newington Green"
347429266,"","",112791218738863,53.838228224284002,-6.265060336084900,"Port, Louth, Ireland","Port"
323817761,"Via Propaganda 1","Roma",114894028651744,41.904519999999998,12.483060000000000,"Lacoste Roma Propaganda","Lacoste Roma Propaganda"
215217482,"","",109500859081716,40.032044238175999,-3.603155783816300,"Aranjuez, Madrid, Spain","Aranjuez"
1357978684276287,"Bridge Street","",1357978684276287,54.271684673000003,-8.471671484000000,"The Building Block Sligo","The Building Block Sligo"
259020488,"Leicester Square  1","",221373654673994,51.510522313700001,-0.131114612773000,"M&Ms Store London","M&Ms Store London"
223127390,"Wide Lane","Southampton, United Kingdom",178939722167292,50.950352997795001,-1.361296988359900,"Southampton Airport","Southampton Airport"
255455589,"","",412080818829700,48.851216666667000,2.357630555555600,"Saint-Louis-en-l'Île","Saint-Louis-en-l'Île"
213650536,"","",113212972022217,51.526000000000003,-0.078000000000000,"Shoreditch","Shoreditch"
878581577,"จอมเทียนสายหนึ่ง","",612364558886609,12.882330000000000,100.893720000000002,"หาดจอมเทียน","หาดจอมเทียน"
215891903,"","",106676009373046,36.125833333332999,-5.343055555555600,"Rock of Gibraltar","Rock of Gibraltar"
261672,"1500 Masters Blvd","ChampionsGate",151099841585500,28.261758635675001,-81.627277300339998,"Omni Orlando Resort at ChampionsGate","Omni Orlando Resort at ChampionsGate"
269947472,"30 Gentlemans Walk","Norwich, United Kingdom",104273236273184,52.628010000000003,1.293454900000000,"LUSH UK","LUSH UK"
1024245207,"7 South Richmond Street","",869820643134556,53.332211185652000,-6.263921435510100,"Raw Gyms","Raw Gyms"
218592490,"","",113457252005195,51.445464145532000,-0.281319493046240,"Richmond Upon Thames, Surrey, United Kingdom","Richmond Upon Thames"
1017939479,"Chelsea Bridge Entrance, Battersea Park","London, United Kingdom",152970068062370,51.480622354692997,-0.155682619190940,"Battersea Evolution","Battersea Evolution"
219805829,"","",128911233855383,54.590933333332998,-5.840000000000000,"Northern Ireland","Northern Ireland"
837103420,"Große Falterstraße 4","",299370516751612,48.746150000000000,9.170949999999999,"alte Scheuer Degerloch","alte Scheuer Degerloch"
226622435,"31 High Bridge","Newcastle, United Kingdom",172214289520723,54.971850283405999,-1.612805106759000,"The Stand Comedy Club, Newcastle","The Stand Comedy Club"
268244453261635,"House of Lords","London, United Kingdom",268244453261635,51.498711635310002,-0.124905109405520,"UK House of Lords","UK House of Lords"
227429146,"","Stansted, Essex",246774225339868,51.889841799376001,0.260249921362650,"London Stansted Airport","London Stansted Airport"
315620891781895,"","",315620891781895,51.965000000000003,-3.432000000000000,"Cradoc, Powys","Cradoc"
264915885,"","",108099562543414,31.750000000000000,35.000000000000000,"Israel","Israel"
180139879389203,"","London, United Kingdom",180139879389203,51.507607256702002,-0.127866268157960,"Trafalgar Square","Trafalgar Square"
806401909516764,"Via Emanuele Gianturco","Isola d'Ischia",806401909516764,40.739937182730003,13.952470421791000,"Discoteca Charly Ischia","Discoteca Charly Ischia"
215109021,"","",106265246077413,6.453060000000000,3.395830000000000,"Lagos, Nigeria","Lagos"
114792,"Aston Triangle","Birmingham, United Kingdom",19479053136,52.486149235075999,-1.889412295599500,"Aston University","Aston University"
31499759,"","",115353315143936,41.899999999999999,12.500000000000000,"Rome, Italy","Rome"
1027729597,"Willy-Brandt-Platz, 60311 Frankfurt am Main","",662704527099341,50.108890000000002,8.673660000000000,"Euro-Skulptur","Euro-Skulptur"
231107316,"","",110999822256807,51.544110000000003,-0.374460000000000,"Northolt, Slough, United Kingdom","Northolt"
214512512,"","",111271915564523,51.218499999999999,6.780500000000000,"Düsseldorf, Germany","Düsseldorf"
295452213,"","",108337852519784,31.000000000000000,-100.000000000000000,"Texas","Texas"
520686224,"Laan van Westenenk 12","Apeldoorn, Netherlands",194274617259054,52.190570000000001,5.938130000000000,"Reformatorisch Dagblad","Reformatorisch Dagblad"
218780113,"","",111858618833258,52.242800000000003,-0.898100000000000,"Northampton, Northamptonshire","Northampton"
1678336332380999,"9/10 Savile Row","London, Greater London",1678336332380999,51.510863499999999,-0.140165900000000,"Alexandra Wood Bespoke Tailoring","Alexandra Wood Bespoke Tailoring"
213121716,"","",115735848437200,50.950000000000003,6.966700000000000,"Cologne, Germany","Cologne"
205313176637662,"Avenue Montaigne","Angers",205313176637662,47.466983300000002,-0.526486100000000,"Angers Centre Ville","Angers Centre Ville"
860039,"15, Place Vendôme","Paris, France",239427086094568,48.868124416073996,2.328870972435500,"Ritz Paris","Ritz Paris"
209621436284581,"48 Newman Street","London, United Kingdom",209621436284581,51.518908400000001,-0.136715200000000,"Mr Fogg's House of Botanicals","Mr Fogg's House of Botanicals"
304028640386281,"519 Stockport Road","",304028640386281,53.458977500000003,-2.202705200000000,"Longsight Library","Longsight Library"
223638241,"","",104010576301667,53.543999999999997,-2.634300000000000,"Wigan","Wigan"
222126394,"","",112036342155298,54.777569999999997,-1.574760000000000,"Durham, Durham","Durham"
148715528520961,"","London, United Kingdom",148715528520961,51.524338606679002,-0.078620910644531,"Shoreditch","Shoreditch"
1583602888529581,"220 N Main Street ","Dunkirk, Ohio",1583602888529581,40.789520000000003,-83.643090000000001,"Mr. Cheezy's","Mr. Cheezy's"
261779834433222,"","E20, London",261779834433222,51.544480000000000,-0.006950000000000,"Stratford","Stratford"
389983831,"","",112463092102121,40.000000000000000,-100.000000000000000,"United States","United States"
111959792549420,"7 Stoney Street","Nottingham",111959792549420,52.953056099999998,-1.143185900000000,"The Angel Microbrewery","The Angel Microbrewery"
68777746,"Carrer Balanguera, 37","",334888053293010,39.579740000000001,2.641870000000000,"HM Balanguera","HM Balanguera"
1332551,"3 Torrens Street","London, United Kingdom",115437098488109,51.532079161059002,-0.105305216649280,"Candid Arts Trust","Candid Arts Trust"
1839690556151115,"Πλατ. Ελευθερίας 1","",1839690556151115,36.451230000000002,28.224298000000001,"Περιφέρεια Νοτίου Αιγαίου","Περιφέρεια Νοτίου Αιγαίου"
1015493054,"","",116009818446932,51.119000000000000,1.301020000000000,"Dover Western Heights","Dover Western Heights"
237172359720637,"Chineham Shopping Centre","Basingstoke, United Kingdom",237172359720637,51.284111297000003,-1.059555921000000,"Chineham Centre Opticians","Chineham Centre Opticians"
412937736,"","",285855371601986,51.521944444444003,-0.071666666666667,"Brick Lane","Brick Lane"
300560859,"","",107509395944840,54.322299999999998,-2.527890000000000,"Sedbergh","Sedbergh"
318648658994420,"","",318648658994420,50.888976408681003,-0.327198661696290,"Saxon Cottage","Saxon Cottage"
289067780,"","",112963038718007,52.710419999999999,-3.252790000000000,"Meifod","Meifod"
728230470873138,"","",728230470873138,41.379725999999998,-82.094449999999995,"OMG. Is this Hell?","OMG. Is this Hell?"
454303560,"","",103129156394545,-34.000000000000000,-64.000000000000000,"Argentina","Argentina"
647411710,"","",108106742544077,52.250000000000000,-9.000000000000000,"British Empire","British Empire"
73347620,"","",110769888951990,53.347799999999999,-6.259700000000000,"Dublin, Ireland","Dublin"
166551167109634,"","Newcastle Upon Tyne",166551167109634,55.087318190064003,-1.663556806170600,"Blagdon Hall","Blagdon Hall"
1447922325290543,"","England",1447922325290543,51.513614300000000,-0.136548599999970,"Soho","Soho"
133297823774258,"65 Hanbury Street","",133297823774258,51.520397400000000,-0.070245900000000,"Libreria","Libreria"
87486,"","Brighton, United Kingdom",84427256753,50.866428544461002,-0.087764212610318,"University of Sussex","University of Sussex"
242572609571891,"Avenida Brigadeiro Faria Lima 2523, cj. 32","",242572609571891,-23.578580275429001,-46.685585975647001,"Hoa Asset Management","Hoa Asset Management"
245993486143021,"Hever","Edenbridge, Kent",245993486143021,51.186496226655997,0.118230037461520,"Hever Castle","Hever Castle"
2852676,"The Waldorf Hilton, 22 Aldwych","London, United Kingdom",135011513212339,51.512636114750002,-0.118849556513390,"The Waldorf Hilton London","The Waldorf Hilton London"
212999109,"","",110970792260960,34.052199999999999,-118.242999999999995,"Los Angeles, California","Los Angeles"
3475028,"1 Whitehall Place","London, United Kingdom",116995588378137,51.506174223000002,-0.123878315000010,"The National Liberal Club","The National Liberal Club"
215871574,"","",108137335885387,-33.925300000000000,18.423900000000000,"Cape Town, Western Cape","Cape Town"
502239540,"","",112975062050552,51.503100000000003,-0.113200000000000,"London Waterloo station","London Waterloo station"
237741551,"Paseo Mediterráneo 339","Mojácar",177016712326228,37.132041876285001,-1.831374656910000,"Parador de Mojácar","Parador de Mojácar"
218523787,"","",106157582748526,52.328170000000000,1.676200000000000,"Southwold","Southwold"
264643319,"","",108248149197406,51.469400000000000,-0.022200000000000,"St Johns, London","St Johns"
338646,"Studio Tour Drive","Watford, United Kingdom",152894501427424,51.690555703541001,-0.418500542483330,"Warner Bros. Studio Tour London","Warner Bros. Studio Tour London"
153985,"31 Monument Sq","",109580839068685,42.376361000000003,-71.060777999999999,"Bunker Hill Monument","Bunker Hill Monument"
449369831,"","",109172649100811,53.833333333333002,-2.416666666666700,"Great Britain","Great Britain"
213832057,"","",106029346094605,50.061399999999999,19.937200000000001,"Kraków, Poland","Kraków"
213163910,"","",112047398814697,-23.550000000000001,-46.633299999999998,"São Paulo, Brazil","São Paulo"
1005522269548869,"Manchester Airport Terminal 2","",1005522269548869,53.366449180819998,-2.279457263409800,"New Aspire Lounge Manchester Airport T2","New Aspire Lounge Manchester Airport T2"
162035234446054,"Dublin Port","",162035234446054,53.350459999999998,-6.217440000000000,"Dublin Port","Dublin Port"
221011422,"","",109168629112135,51.546140876011002,-0.064974507850430,"Hackney, Hackney, United Kingdom","Hackney"
215286229,"108 Marylebone Lane","London, United Kingdom",345248042262628,51.517997399999999,-0.150591000000000,"108 Marylebone Lane Bar & Restaurant","108 Marylebone Lane Bar & Restaurant"
121893,"10 Columbus Cir","New York, New York",157917474221446,40.767864929376998,-73.982930922733999,"CNN","CNN"
231313927,"","",109233899095885,53.692590000000003,-1.306340000000000,"Pontefract","Pontefract"
217074482,"Börsenplatz 4","Frankfurt, Germany",142164652531797,50.114903525999999,8.678418587000600,"Frankfurt Stock Exchange","Frankfurt Stock Exchange"
2332625993728903,"","",2332625993728903,51.507720999999996,-0.099194099999977,"Tate Modern","Tate Modern"
874131102976936,"Dartmoor National Park","",874131102976936,50.714149999999996,-3.962180600000000,"Belstone Tor","Belstone Tor"
220002888,"The Queen's Walk","London, United Kingdom",69261051227,51.506302364038000,-0.081469202694912,"HMS Belfast","HMS Belfast"
450453728486459,"Threadneedle Street","London",450453728486459,51.513770396245000,-0.088158845901489,"Bank of England","Bank of England"
372817088,"","",104023262966156,38.700000000000003,-9.183333333333300,"Portugal","Portugal"
213590724,"","",103097293064397,51.385030000000000,-2.361320000000000,"Bath, Somerset","Bath"
10902904,"Sheikh Zayed Road, Business Bay","Dubai, United Arab Emirates",219022854850670,25.185624000000001,55.258214000000002,"JW Marriott Marquis® Hotel Dubai","JW Marriott Marquis® Hotel Dubai"
17326249,"","",115085015172389,55.752200000000002,37.615600000000001,"Moscow, Russia","Moscow"
220466809,"","Bristol, United Kingdom",190636497690103,51.386137844650001,-2.709481716156000,"Bristol Airport","Bristol Airport"
415963421,"","",109002992458319,24.016667000000002,89.866667000000007,"Bangladesh","Bangladesh"
1848804,"A201/Vilvoordelaan ","Zaventem, Belgium",153449101365396,50.900265941506000,4.483727210970100,"Brussels Airport","Brussels Airport"
794479867560123,"372 Kennington Lane","",794479867560123,51.486371800000001,-0.121881199999960,"Royal Vauxhall Tavern","Royal Vauxhall Tavern"
32678458963,"","",32678458963,41.836827860726999,1.406250000000000,"CATALUNYA","CATALUNYA"
1758150257781030,"Петербургское шоссе, 64/1","",1758150257781030,59.759628300000003,30.363349899999999,"Санкт-Петербургский Экспофорум","Санкт-Петербургский Экспофорум"
255354787,"ABU DAHBI","",513297608737878,24.253906558764999,54.630731590219000,"UAE","UAE"
213240048,"","",113194725360629,54.988100000000003,-1.619440000000000,"Newcastle upon Tyne","Newcastle upon Tyne"
227501188,"","",111906762160356,51.620649999999998,0.303510000000000,"Brentwood, UK","Brentwood"
140453876570218,"Oxford Street","London, United Kingdom",140453876570218,51.516425300000002,-0.132250200000000,"London-Westminster","London-Westminster"
1463801840308653,"","England",1463801840308653,51.502820100000001,-0.119252299999970,"London Eye","London Eye"
213324785,"","",114751268540391,-1.283330000000000,36.816699999999997,"Nairobi, Kenya","Nairobi"
238928228,"","",107795765915154,50.933333333333003,4.383333333333300,"Grimbergen","Grimbergen"
479736148890884,"","London, Greater London",479736148890884,51.517099000000002,-0.146084000000000,"China Town London","China Town London"
9952604,"11 Leonard Street","London, United Kingdom",321458484563486,51.524746100000002,-0.086677800000000,"Ozone Coffee Roasters London","Ozone Coffee Roasters London"
303024260123140,"","Kendal, Cumbria",303024260123140,54.261800800000003,-2.783282400000000,"Lake District , Windermere Uk","Lake District "
261800346,"Arduinkaai 7-9  1000 Brussel","Brussels, Belgium",28360437962,50.855433797141998,4.351626752665600,"KVS","KVS"
203553949679370,"","",203553949679370,43.613290999999997,3.887475000000000,"Occitanie","Occitanie"
2729170713973809,"2 Market Street","",2729170713973809,55.951081700000003,-3.189403099999900,"City Art Centre","City Art Centre"
230762610,"","",109533139073635,51.532379461472999,-0.123309124565730,"London King's Cross railway station","London King's Cross railway station"
283961393,"","",225495170814152,53.168888888889001,-6.120000000000000,"Little Sugar Loaf","Little Sugar Loaf"
253146600,"","",107495505952452,51.512101029676003,-3.218279034055900,"Whitchurch, Cardiff, United Kingdom","Whitchurch"
213305671,"","",110081962354501,52.372700000000002,9.738000000000000,"Hanover, Germany","Hanover"
243960126,"Avenida Atlántica","Rio De Janeiro",478422715555124,-22.969108486018001,-43.181432349769999,"Praia De Copacabana - Rio De Janeiro","Praia De Copacabana - Rio De Janeiro"
213281320,"","",111070818917271,25.199400000000001,55.274099999999997,"Dubai, United Arab Emirates","Dubai"
63134088,"","",111165112241092,48.208300000000001,16.373100000000001,"Vienna, Austria","Vienna"
213110159,"","",114829128532877,53.549999999999997,10.001400000000000,"Hamburg, Germany","Hamburg"
1433336206973284,"Virginia Woolf Building, 22 Kingsway","London, United Kingdom",1433336206973284,51.514575999999998,-0.118136100000000,"UK in a Changing Europe","UK in a Changing Europe"
567017401,"","",107480665948163,56.000000000000000,-109.000000000000000,"Canada","Canada"
175708192582619,"258 Field End Road","Harrow, United Kingdom",175708192582619,51.579819053375999,-0.337006947240790,"Lotuswise Chartered Accountants and Business Consultants","Lotuswise Chartered Accountants and Business Consultants"
219279939,"Parliament Sq","",112915868722538,51.499899999999997,-0.124667000000000,"House of Commons","House of Commons"
267690981,"","",112483542097587,54.000000000000000,-2.000000000000000,"United Kingdom","United Kingdom"
242058829,"Allée du Printemps","",142269525786052,48.597402777778001,7.768825000000000,"Seat of the European Parliament in Strasbourg","Seat of the European Parliament in Strasbourg"
1019617832,"","",215498548494623,50.814200000000000,4.412200000000000,"Brussels and the European Union","Brussels and the European Union"
638705036594995,"Abingdon St","",638705036594995,51.499000000000002,-0.125978920000000,"Old Palace Yard","Old Palace Yard"
289732656,"32 Smith Square","London, United Kingdom",310175149000473,51.495649100000001,-0.127538200000000,"European Parliament in the UK","European Parliament in the UK"
341643874,"The Strand","",326332070755820,51.512749999999997,-0.117277777777780,"Bush House","Bush House"
175867299789361,"","Coventry, West Midlands",175867299789361,52.387300000000003,-1.554510000000000,"Cannon Park","Cannon Park"
1017617092,"","",109216259099014,44.065600000000003,-103.414000000000001,"Big Bend, South Dakota","Big Bend"
305785381,"","",111517998866277,51.018784267736997,-1.328906607527400,"Shawford","Shawford"
108089469218516,"","",108089469218516,-33.366700000000002,-70.549999999999997,"La Dehesa","La Dehesa"
859494484231448,"No 1 Spinningfields, 1 Hardman Square, Spinningfields","",859494484231448,53.479756100000003,-2.248806800000000,"20 Stories MCR","20 Stories MCR"
735245,"","",109281049091287,48.411800000000000,-114.340000000000003,"Whitefish, Montana","Whitefish"
358140325,"","",112604628752359,51.540999999999997,-0.143300000000000,"Camden Town","Camden Town"
520144,"Brussels","",178362315106,50.838974505266997,4.374464712811000,"European Parliament","European Parliament"
737434341,"235 The Broadway","",476066019211584,51.510758253520002,-0.375907304960000,"Southall Broadway, London","Southall Broadway"
1633984530230792,"","London, United Kingdom",1633984530230792,51.506430000000002,-0.127210000000000,"English Premier League","English Premier League"
126355637984000,"22 Wellfield Road, Roath","Cardiff",126355637984000,51.495042200000000,-3.165359600000000,"Paperweight","Paperweight"
541819575,"","",112230392125420,49.292175597499998,-0.510163530754000,"Normandy","Normandy"
2048422048709954,"Promenade Alcide de Gasperi","",2048422048709954,48.597447758343002,7.769728012263000,"European Parliament","European Parliament"
486587581501472,"Odos Vasileiou Voulgaroktonou","Nicosia, Cyprus",486587581501472,35.173404904366002,33.359835147858000,"ΠΟΛΙΤΗΣ 107.6 FM","ΠΟΛΙΤΗΣ 107.6 FM"
216163464,"","",108223895865151,51.522390000000002,-0.727250000000000,"Maidenhead","Maidenhead"
221249535,"","",107610005935250,51.748570000000001,-0.979990000000000,"Thame","Thame"
5229394,"","",108050889223312,52.921900000000001,-1.475800000000000,"Derby","Derby"
316328658831723,"Piazza Unità d'Italia","",316328658831723,45.649968875265003,13.767804461040001,"Piazza Unità D'italia","Piazza Unità D'italia"
303301019,"","",107001222665219,53.959163572081998,-8.801228001318400,"Charlestown, Mayo, Ireland","Charlestown"
527654684364732,"","",527654684364732,50.771085699640999,6.073057651519800,"United King Kong","United King Kong"
258818694,"","",114035565273425,51.204009999999997,7.357240000000000,"Radevormwald","Radevormwald"
212988663,"","",108424279189115,40.714199999999998,-74.006399999999999,"New York, New York","New York"
213076320,"53 Bankside","",103093513063670,51.507797247760998,-0.099611630492164,"Tate Modern","Tate Modern"
222130485,"","",112239828802227,51.450000000000003,5.466670000000000,"Eindhoven, Noord-Brabant","Eindhoven"
2026529580912966,"A. Adnan Saygun Cd. Ortaköy","",2026529580912966,41.057193702604998,29.030530665070000,"TRT Ulus Stüdyoları","TRT Ulus Stüdyoları"
1172406852811286,"","",1172406852811286,43.550216333416003,7.016629479952000,"Cannes, French Riviera, France","Cannes"
231401561,"","",108030965897318,52.057699999999997,-2.719200000000000,"Hereford, Herefordshire","Hereford"
213492192,"","",115162068494946,51.454099999999997,-0.973000000000000,"Reading, England","Reading"
506528211,"","",111833308835756,-33.483300000000000,149.633000000000010,"Whiterock","Whiterock"
1132778,"","",115068688508473,29.556400000000000,34.949900000000000,"Eilat, Israel","Eilat"
220811521844778,"Cromwell Road","Nw2, London",220811521844778,51.547894900000003,-0.182981699999990,"National History Museum","National History Museum"
1105940249500498,"30 Sydney Street","Brighton, United Kingdom",1105940249500498,50.827673900000001,-0.137519700000000,"Wolfand Gypsyvintage","Wolfand Gypsyvintage"
371068433065487,"Arkelhof 177","Zevenbergen (Zevenbergen, Netherlands)",371068433065487,51.646949800000002,4.589379800000000,"Let's Get 2-Gether Mediation, Advies & Coaching","Let's Get 2-Gether Mediation"
365477335,"Av. Alicia Moreau de Justo 516","",311712655661094,-34.603654123414998,-58.366316783564002,"Cabaña Las Lilas Restaurant","Cabaña Las Lilas Restaurant"
699463953584003,"","",699463953584003,41.508577297438997,-75.234375000000000,"Poetry","Poetry"
218182521,"","",114701878545946,50.721800000000002,-3.533600000000000,"Exeter, Devon","Exeter"
316246962,"Airportring","",452815804738598,50.051270101900002,8.585812684600500,"Flughafen Frankfurt International","Flughafen Frankfurt International"
324845852,"","",230207150339574,48.280438350300002,-2.838116900800000,"Bretagne, France","Bretagne"
218557567,"","",112120145470734,51.362310000000001,1.026650000000000,"Whitstable","Whitstable"
214262158,"","",106024019437151,52.077800000000003,4.315800000000000,"The Hague, Netherlands","The Hague"
522984521,"","",126258740750828,53.396000000000001,-2.204000000000000,"Cheadle","Cheadle"
906361854,"","",103094769730910,50.123888888888999,8.639166666666700,"Frankfurt-Bockenheim","Frankfurt-Bockenheim"
52949,"Blackheath Avenue","London, United Kingdom",194879525472,51.479240507229001,-0.002707570115062,"Greenwich Park","Greenwich Park"
216953137,"University Of The West Of England Frenchay Campus Coldharbour Lane","Bristol, United Kingdom",121239221256233,51.500349269955997,-2.547629635926600,"UWE Bristol","UWE Bristol"
89147726543,"Partizánska 2","Bratislava, Slovakia",89147726543,48.146309992851997,17.099055647850001,".týždeň",".týždeň"
788556757911356,"Frans de Wollantstraat 70","Amsterdam",788556757911356,52.370778285097003,4.932346343994100,"NEVERNEVERLAND","NEVERNEVERLAND"
291796554,"","",313615612015843,-28.465418000000000,28.847617480916000,"Free state,Qwa qwa,Bluegumbosch","Free state"
235186593,"170 Drury Lane","London, United Kingdom",198488626886605,51.515358800000001,-0.122965600000000,"The Top Secret Comedy Club","The Top Secret Comedy Club"
225306811,"","",113001145415582,53.796293651539997,-1.547401814774400,"Leeds City Square","Leeds City Square"
219933411,"","",108217925873723,51.468703280756998,-0.258494162986780,"Mortlake","Mortlake"
228695962,"104 Pall Mall, London, SW1Y 5EW","",102231786498547,51.506666666667002,-0.133333333333330,"Reform Club","Reform Club"
406898259689785,"","La Plagne Tarentaise, Auvergne-Rhône-Alpes",406898259689785,45.493955717341002,6.735116862240700,"Roche de Mio 2700m","Roche de Mio 2700m"
227757106,"","",110695768957647,51.502089452126000,-0.193741743332870,"Kensington, United Kingdom","Kensington"
1851112555219403,"Piccadilly 1","",1851112555219403,53.481204185438998,-2.237151176856400,"Piccadilly Gardens Manchester","Piccadilly Gardens Manchester"
213765957,"BBC Broadcasting House Portland Pl","",108148692540210,51.518408333332999,-0.143691666666670,"Broadcasting House","Broadcasting House"
264898045,"","",109463455744886,51.899999999999999,0.750000000000000,"Great Tey, Essex, United Kingdom","Great Tey"
224742878,"","",109895735700087,53.213320000000003,-1.675100000000000,"Bakewell, Derbyshire","Bakewell"
263624470,"","",106078956090444,39.000000000000000,22.000000000000000,"Greece","Greece"
800123673,"","",138461499517277,51.513916666667001,0.008388888888889,"Canning Town station","Canning Town station"
62863,"Bermondsey Street","London, England",109952612412068,51.499941969650003,-0.081566774059473,"Bermondsey Street","Bermondsey Street"
1018989389,"203 Victoria Park Rd","",138945462790794,52.622000000000000,-1.120000000000000,"Victoria Park, Leicester","Victoria Park"
465405017,"28 Northload St","",106220476076236,51.155000000000001,-2.586000000000000,"Glastonbury Festival","Glastonbury Festival"
945717270,"Stonehenge Circle","Salisbury, United Kingdom",124281190987115,51.185538936802999,-1.859186361608000,"Stonehenge","Stonehenge"
771116976,"","",108286535862860,47.663333333333000,9.175277777777801,"Konstanz","Konstanz"
11018305,"","",103784469660420,36.600499999999997,-121.892099999999999,"Monterey, California","Monterey"
48674569,"Rue Belliard 99-101","Brussels, Belgium",144709575593854,50.840470000000003,4.377250000000000,"EESC - European Economic and Social Committee","EESC - European Economic and Social Committee"
924436734401679,"Sheffield Road, Tinsley","",924436734401679,53.414187424683000,-1.401185989379900,"IKEA","IKEA"
232018919,"","",260630084070053,50.789600000000000,0.054370000000000,"Port of Newhaven","Port of Newhaven"
366880462,"","",103742892997739,18.182387800000001,-77.321777299999994,"Jamaica","Jamaica"
227591003,"","",113535295323680,51.410919999999997,-0.834790000000000,"Wokingham","Wokingham"
351184,"Northcote House, The Queen's Drive","Exeter, Devon",17373130431,50.735538490983998,-3.533521066108100,"University of Exeter","University of Exeter"
215690945,"","",107950942566931,51.537900000000000,0.713800000000000,"Southend-on-Sea","Southend-on-Sea"
425557139,"Grangeclare","",109242382427162,53.166666666666998,-6.750000000000000,"County Kildare","County Kildare"
2154711618116931,"Kent Showground","",2154711618116931,51.301709796163003,0.584270954132080,"Farm Expo","Farm Expo"
264694765,"","",115156605164792,55.789029999999997,-3.992170000000000,"Motherwell, North Lanarkshire","Motherwell"
172758613438817,"","Neu-Isenburg",172758613438817,50.039439999999999,8.596810000000000,"Aussichtsplattform Zeppelinheim","Aussichtsplattform Zeppelinheim"
467207528,"Lange Voorhout 10","The Hague, Netherlands",407904822652721,52.082210000000003,4.310590000000000,"British Embassy The Hague and British Consulate-General Amsterdam","British Embassy The Hague and British Consulate-General Amsterdam"
400173102,"via Poggio al Pino 16","San Miniato",94537649477,43.682190109006001,10.889777112138001,"Cosimo Maria Masini","Cosimo Maria Masini"
231199143713359,"33 High Street ","Londra (London, United Kingdom)",231199143713359,51.579136432958002,0.024998188018799,"More Italy","More Italy"
306367243,"Neuhauserstrasse 47","München, Germany",465474473472705,48.138820000000003,11.566739999999999,"Ruby Freitag - Two for One","Ruby Freitag - Two for One"
767158323476995,"Champ de Mars, 5 Avenue Anatole France","",767158323476995,48.854779999999998,2.300380000000000,"Eiffel Tower, Paris","Eiffel Tower"
228234864227762,"","",228234864227762,39.474860000000000,-0.407930000000000,"Cabecera Park","Cabecera Park"
371624226531845,"","",371624226531845,50.922084290998001,1.779236052925500,"Eurotunnel under the Sea","Eurotunnel under the Sea"
593729253,"","",137465862943141,51.847000000000001,-2.542200000000000,"Ruardean Woodside","Ruardean Woodside"
589844708038740,"Alte Dübener Landstraße","Leipzig",589844708038740,51.395738999999999,12.394339300000000,"Messe Leipzig","Messe Leipzig"
277169489649616,"Kunstberg 5","Brussels, Belgium",277169489649616,50.844470343338003,4.356540441513100,"Plein Publiek BXL","Plein Publiek BXL"
493074259,"","",104831419552053,43.886399957667997,10.519638481925000,"San Quirico Di Moriano, Toscana, Italy","San Quirico Di Moriano"
210475409683002,"Quai de L' Épi","Saint-Tropez",210475409683002,43.272564400000000,6.636356500000000,"Port de Saint-Tropez / Capitainerie","Port de Saint-Tropez / Capitainerie"
829816825,"","",109610129065161,50.951300000000003,-0.750950000000000,"Cocking, West Sussex","Cocking"
264906645,"","",112451522099157,52.420400000000001,-1.738220000000000,"Catherine-de-Barnes","Catherine-de-Barnes"
284805640,"","",111486995539090,42.496899999999997,18.450299999999999,"Malta","Malta"
219342668703424,"","Manchester, Lancashire",219342668703424,53.482056900000004,-2.245833500000000,"German Christmas Markets","German Christmas Markets"
2046301719015131,"Parkinson Building, University of Leeds","",2046301719015131,53.807710000000000,-1.552562700000000,"Parkinson Steps","Parkinson Steps"
476943768,"","",108360675859724,51.487175653115003,-0.287449321200230,"Kew Bridge, Slough, United Kingdom","Kew Bridge"
404761,"372 Kennington Lane","London, United Kingdom",9189327788,51.486065900000000,-0.121945000000000,"The Royal Vauxhall Tavern","The Royal Vauxhall Tavern"
213449307,"","",109830962370149,42.341666666667002,-70.966111111111005,"Boston Harbor","Boston Harbor"
217288063,"","",107611279261754,43.165500000000002,-77.611500000000007,"Rochester, New York","Rochester"
181384,"Tithe an Oireachtais, Kildare St","",132689033438164,53.340550000000000,-6.254021000000000,"Leinster House","Leinster House"
601603,"Biscuit Building 10 Redchurch Street","",132402170144511,51.524188940316002,-0.075997852783404,"Mother London","Mother London"
458512182,"","",1519074181680386,50.757334088030000,-1.303141929996500,"Dts Skate Park and Dds Cakes and Bakes","Dts Skate Park and Dds Cakes and Bakes"
425888584583758,"andheri east mumbai ","Mumbai, Maharashtra",425888584583758,19.119270000000000,72.870379999999997,"Follow me","Follow me"
980945784,"268-272 north circular road, phibsborough, dublin","Phibsborough, Dublin",1623682991245644,53.359157734839997,-6.279759407043500,"The White Moose Café","The White Moose Café"
278609765,"London","",132269210260886,51.505866611111003,-0.144250608333330,"London Green Park","London Green Park"
221613982,"","",106058999434808,51.735900000000001,0.469300000000000,"Chelmsford, Essex","Chelmsford"
3520874,"6-9 Carlton House Terrace","London, United Kingdom",148276958538181,51.506035703785997,-0.131978512583560,"The Royal Society","The Royal Society"
1317982988235207,"Whitehall","Twickenham",1317982988235207,51.461471400000001,-0.324507800000000,"Whitehall, London","Whitehall"
1030268356,"","Buckfastleigh",232595713749449,50.717869999999998,-3.871500000000000,"Dartmoor National Park","Dartmoor National Park"
357777401466395,"Court of Justice of the European Union","Luxembourg, Luxembourg",357777401466395,47.040182144806998,8.437500000000000,"Brexit","Brexit"
513708705764660,"CHQ Building, Mayor St","",513708705764660,53.349083000000000,-6.247833300000000,"The Bakehouse Express","The Bakehouse Express"
241436359,"Pappelallee","",412465508789434,52.543097474058001,13.414280519607001,"Pappelallee","Pappelallee"
539159179810977,"10 Downing Street","SW1, London",539159179810977,51.503450000000001,-0.127680000000000,"10 Downing Street","10 Downing Street"
204531,"University Road ","Belfast, United Kingdom",39989884514,54.584526354383002,-5.935144092337200,"Queen's University Belfast","Queen's University Belfast"
1076555,"Business Design Centre, 52 Upper Street","London, United Kingdom",180853040268,51.535469821237001,-0.105518363378090,"London Art Fair","London Art Fair"
942499659,"Börsenpatz 4","Frankfurt, Germany",201479179918,50.115079999999999,8.677709999999999,"Börse Frankfurt","Börse Frankfurt"
235471896,"Leeghwaterplein 72","Den Haag, Netherlands",186711078033769,52.066683741730998,4.320196683640600,"ROC Mondriaan","ROC Mondriaan"
232192305,"","",136994532988991,51.403599999999997,-0.326550000000000,"Hampton Court Park","Hampton Court Park"
255607532,"","",104097099627890,54.981575035227003,-1.634895245318700,"BBC Newcastle","BBC Newcastle"
227654507,"","",108201152541160,54.277839999999998,-0.410680000000000,"Scarborough, North Yorkshire","Scarborough"
268506902,"Portland Place","London, United Kingdom",175202369185094,51.505976560835002,-0.226314504699030,"BBC Broadcasting House","BBC Broadcasting House"
229661085,"","",112304948782422,51.520471890189000,-0.109575292052300,"Leather Lane","Leather Lane"
196091917606168,"10 Portugal Street","Camden",196091917606168,51.514698791842001,-0.115789156576110,"L S E Library","L S E Library"
233748750,"","",104057259630211,51.344069444444003,-0.664700000000000,"West End, Surrey","West End"
17938443,"26 Viewforth","",108216095866945,55.938157194485001,-3.209006675805500,"Boroughmuir High School","Boroughmuir High School"
226386696,"","",111835142167214,51.463479125254999,-2.589918981529000,"Stokes Croft","Stokes Croft"
1022234055,"Queen Elizabeth Olympic Park","London, United Kingdom",530074807161758,51.547601911895001,-0.024054796247801,"Here East","Here East"
236282758,"","",110719768948711,51.933300000000003,-1.733330000000000,"Stow on the Wold","Stow on the Wold"
219217379,"","",126338077409270,51.533333333332998,-0.133333333333330,"London Borough of Islington","London Borough of Islington"
328512554584027,"Jubilee Room House of Commons","",328512554584027,51.499738100000002,-0.124646600000010,"Houses of Parliament","Houses of Parliament"
1588877134710075,"","",1588877134710075,51.039355700000002,2.373052000000000,"Port","Port"
307582754,"The Brentwood Centre, Doddinghurst Road","Brentwood, United Kingdom",271866946202269,51.634935367166001,0.299503782669370,"Phoenix FM","Phoenix FM"
250707659,"UNISON Centre, 130 Euston Road NW1 2AY ","London, United Kingdom",190330747706140,51.527962936515998,-0.129600689249220,"UNISON","UNISON"
112073789386948,"Portugal Street","Wc2, London",112073789386948,51.514419057498998,-0.118093496760230,"Peacock's Theatre, Holborn","Peacock's Theatre"
214680112,"","",107675752595606,51.517470028805000,-0.119200473321780,"Holborn","Holborn"
434314610,"Kildare St, Dublin 2, Ireland","",107854279243257,53.340559419572003,-6.254827568808700,"Oireachtas","Oireachtas"
246347342,"Kingston University, Penrhyn Rd","Kingston upon Thames",5519059730,51.403300465167000,-0.303734421607230,"Kingston University","Kingston University"
283752023,"Jalan Kelapa Hijau 9","Jakarta, Indonesia",568761836544848,-6.246956755449000,106.929901985200004,"Kompleks Billy Moon Jl Raya Kalimalang Jak-Tim","Kompleks Billy Moon Jl Raya Kalimalang Jak-Tim"
501593865,"","",109520365741001,51.400900000000000,-0.151700000000000,"Mitcham, London","Mitcham"
1058670330978045,"","",1058670330978045,51.500055900000000,-0.129648099999940,"Central Hall Westminster","Central Hall Westminster"
1707323469396194,"","W1, London",1707323469396194,51.503284000000001,-0.150940300000000,"Hyde Park, London","Hyde Park"
341394782,"","",112657988745345,5.024800000000000,7.932500000000000,"Uyo","Uyo"
323267461130858,"3 Robinson Road","",323267461130858,51.506939477548002,-0.104241371154790,"Sama Bankside","Sama Bankside"
123366194404504,"MediaCityUK, Salford Quays ","Salford, United Kingdom",123366194404504,53.472443564692000,-2.298252837948900,"MediaCityUK","MediaCityUK"
213301998,"","",112546045427755,51.463769444443997,-0.167711111111110,"Battersea","Battersea"
221270478,"","",105797086126624,51.372700000000002,-0.109900000000000,"Croydon, United Kingdom","Croydon"
1999387,"4 Queens Road","Wimbledon, United Kingdom",145206395565736,51.421168591613998,-0.204869274698680,"Centre Court Shopping Centre","Centre Court Shopping Centre"
1885793745056513,"","",1885793745056513,51.507114863623997,-0.127318052363530,"Brexit Island","Brexit Island"
950301585,"Belfast City Hall","Belfast, United Kingdom",278479468931255,54.597054193124997,-5.930236558878600,"Belfast Continental Christmas Market","Belfast Continental Christmas Market"
328007577371121,"All Ireland","",328007577371121,55.379110448010998,-7.734375000000000,"Irish Republican National Congress","Irish Republican National Congress"
1764870977133206,"","Bolton",1764870977133206,53.613639900000003,-2.437900000000000,"TeePee Creations","TeePee Creations"
214427862,"","",110490145638510,49.262799999999999,4.034700000000000,"Reims, France","Reims"
26428229,"Aspects Leisure Park, Leisure Road","",205330746233580,51.448827809130002,-2.500239962778400,"Longwell Green Leisure Centre","Longwell Green Leisure Centre"
2000957850124031,"","Ec3, London",2000957850124031,51.511093700000004,-0.076990300000000,"Earl's Court","Earl's Court"
2419328181441973,"","London, United Kingdom",2419328181441973,51.503345600000003,-0.127702100000000,"Brexit Votes Matter","Brexit Votes Matter"
294945179,"","",135006046532357,53.831200000000003,-1.948800000000000,"Haworth railway station","Haworth railway station"
1460236520665964,"W 55th St","New York, NY",1460236520665964,40.764380000000003,-73.981099999999998,"Wall Street, New York","Wall Street"
222926717,"","",111716088855442,52.194249900000003,-1.707520000000000,"Stratford-upon-Avon, Warwickshire","Stratford-upon-Avon"
222003692,"","",106076586099038,52.408099999999998,-1.510600000000000,"Coventry, United Kingdom","Coventry"
574821,"Grant Way","",128109813905557,51.487012404700998,-0.326854834035640,"British Sky Broadcasting","British Sky Broadcasting"
213897914,"","",106010149430037,53.522700000000000,-1.132300000000000,"Doncaster","Doncaster"
1101915859987186,"Lifestyle Building","Hyderabad",1101915859987186,17.399456000000001,78.481780000000000,"10 Downing Street","10 Downing Street"
3668770,"Große Scharrnstraße 59","Frankfurt an der Oder, Germany",124062551016849,52.342126602500997,14.555798547283000,"Europa-Universität Viadrina","Europa-Universität Viadrina"
1177783682332268,"    ","Colthouse, Cumbria",1177783682332268,54.375929999999997,-2.990210000000000,"Colthouse","Colthouse"
8752964393,"86 Merton St","Ottawa",8752964393,45.404789999999998,-75.725719999999996,"Not In My Colour","Not In My Colour"
213137659,"","",138690426154549,51.533333333332998,-0.083333333333333,"London Borough of Hackney","London Borough of Hackney"
249874551,"","",138434706181869,51.616100000000003,-0.095200000000000,"North Circular Road","North Circular Road"
51492242,"","",116851005026898,51.160097518314998,-0.176475541400720,"Gatwick Airport","Gatwick Airport"
244495624,"","",110191902332250,22.581918060294001,88.415437188235003,"Salt Lake City, West Bengal, India","Salt Lake City"
222598320,"","",115447981798665,51.618940000000002,0.075110000000000,"Chigwell, United Kingdom","Chigwell"
265622413,"237 High Street Ashburton","Ashburton, Victoria",369409749781220,-37.863390000000002,145.078039899999993,"Chicken Central","Chicken Central"
304400136733586,"Distillery Road 2","Coleraine",304400136733586,55.201805100000001,-6.518591200000000,"The Old Bushmills Distillery Company Limited","The Old Bushmills Distillery Company Limited"
1015483004,"13-15 Lint Riggs","Falkirk",371124517537,56.000200000000000,-3.786570000000000,"Sisters Boutique","Sisters Boutique"
789172481,"","",105590906140084,47.983300000000000,7.850000000000000,"Freiburg im Breisgau","Freiburg im Breisgau"
578879538,"","",115037615175742,-1.283333333333300,36.816666666666997,"Nairobi","Nairobi"
446390054,"Pražský hrad","",112564565425624,50.089170000000003,14.395560000000000,"Prague Castle","Prague Castle"
136996940276159,"","Vector",136996940276159,41.383299999999998,2.183330000000000,"Unknown","Unknown"
215810308,"","",143398059008665,51.570599999999999,-0.049861000000000,"Walthamstow Marshes","Walthamstow Marshes"
226091303,"","",110776595613900,48.520380000000003,9.049149900000000,"Tübingen, Germany","Tübingen"
133129584044358,"Robert Sobukwe Rd, Bellville, Cape Town","",133129584044358,-33.930991258592002,18.635211319808000,"University of the Western Cape","University of the Western Cape"
307490175,"Hales View Farm Oakamoor Road Cheadle","Stoke-on-Trent, United Kingdom",114645382042718,52.991144304289001,-1.969793022939200,"Les Oakes & Sons Architectural Reclamation Yard","Les Oakes & Sons Architectural Reclamation Yard"
122255399,"","",112786908735414,50.116700000000002,-5.450000000000000,"Perranuthnoe","Perranuthnoe"
369201697219746,"","Ahmedabad, India",369201697219746,19.311143355064999,70.312500000000000,"World of Memes","World of Memes"
1972196466377304,"5 Henrietta Street","London, United Kingdom",1972196466377304,51.511310000000002,-0.122940000000000,"Din Tai Fung UK","Din Tai Fung UK"
1656137617785879,"","",1656137617785879,55.949485000000003,-3.191712000000000,"Edimburgo - Escocia","Edimburgo - Escocia"
18611633,"15 place Jean Jaurès","Béziers, France",102541013147836,43.340950155824998,3.215530979733300,"Le Chameau Ivre","Le Chameau Ivre"
264682696,"Plaza Poeta Sansano, 1","Orihuela, Spain",252740044784747,38.085340000000002,-0.943175000000000,"Teatro Circo Atanasio Díe Marín","Teatro Circo Atanasio Díe Marín"
207409165,"","",110589025635590,50.087600000000002,14.421500000000000,"Prague, Czech Republic","Prague"
566981948,"","",108191385876482,-25.000000000000000,135.000000000000000,"Australia","Australia"
689408107759960,"","",689408107759960,71.066913651711005,28.247488724642000,"The End of the World","The End of the World"
277445172,"Sessenreuther Str. 50","Wirsberg",132003626857827,50.101050000000001,11.609570000000000,"Hotel Reiterhof Bellevue Spa & Resort****S","Hotel Reiterhof Bellevue Spa & Resort****S"
641381439,"","",133730516667284,47.035800000000002,-122.905000000000001,"Washington House of Representatives","Washington House of Representatives"
1014313716,"71 Ravenswood AVE","",720550441346606,52.028798179992002,1.196790406646500,"The Bomb Shelter","The Bomb Shelter"
215828104,"Houses of Parliament, Westminster","London, United Kingdom",16553417732,51.500221676629998,-0.125571978027880,"UK Parliament","UK Parliament"
212941492,"","",110148382341970,25.775200000000002,-80.191999999999993,"Miami, Florida","Miami"
213088533,"","",110346955653479,-22.908000000000001,-43.197499999999998,"Rio de Janeiro, Rio de Janeiro","Rio de Janeiro"
6889842,"","",110774245616525,48.856699999999996,2.350800000000000,"Paris, France","Paris"
578165150,"","",124798264263271,34.610602866200999,-98.410310829677002,"Still Waiting","Still Waiting"
160208991191879,"Eastfields Avenue","",160208991191879,51.462443351822998,-0.199363231658940,"Riverside Quarter","Riverside Quarter"
214736726,"","",108251189197758,26.708600000000001,-80.057199999999995,"West Palm Beach, Florida","West Palm Beach"
576110383,"","",260555754060497,53.817206400000003,-6.413224200000000,"DKIT Dundalk","DKIT Dundalk"
634864942,"St George Way","Darlington, United Kingdom",122032767827268,54.511601054097000,-1.433854427277800,"Durham Tees Valley Airport","Durham Tees Valley Airport"
814991904,"29-30 Surrey Street","",362171347323863,50.828660419252998,-0.141572532573860,"The Grand Central","The Grand Central"
280364922,"cebu philippines","",481126271914714,37.483563492400002,126.929186270000002,"Cebu Philipines","Cebu Philipines"
217856156,"Flughafenstr. 4","Langenhagen, Germany",128740673862146,52.458649625551999,9.696580115531299,"Hannover Airport","Hannover Airport"
473214,"13 Norfolk Place","London, United Kingdom",185153854736,51.516983799999998,-0.172476300000000,"The Frontline Club","The Frontline Club"
1194831720578145,"Lawn lane","Sutton In Ashfield",1194831720578145,53.124502368588999,-1.253629869794500,"Sutton Lawns Park","Sutton Lawns Park"
182430,"Bismarckstraße 35","Berlin, Germany",147287968636823,52.511960000000002,13.308430000000000,"Deutsche Oper Berlin","Deutsche Oper Berlin"
548027126,"Unit 2 Eastgate Centre, Eastgate Road","Bristol, United Kingdom",187641821445808,51.473355825184001,-2.565128984093200,"Pizza Hut Bristol Eastgate","Pizza Hut Bristol Eastgate"
1682729,"Sheikh Zayed Road","Dubai, United Arab Emirates",292931997601,25.220588391214999,55.280295610427999,"Crowne Plaza Dubai, Sheikh Zayed Road","Crowne Plaza Dubai"
217741,"Museumplein 6","Amsterdam",127104175596,52.358409743814001,4.881151556083900,"Van Gogh Museum","Van Gogh Museum"
246766810,"304 S Elm St","Greensboro, North Carolina",249562981848717,36.069969999999998,-79.790639999999996,"Scuppernong Books","Scuppernong Books"
215692787,"Martin Nyrops Plads 2","Sønderborg, Denmark",165554720191929,54.911085057800001,9.793732166290299,"Sønderborghus","Sønderborghus"
253933253,"","",106433252724017,51.850600000000000,-8.341390000000001,"Monkstown, Cork, Ireland","Monkstown"
217600251,"","",106202606077064,37.750000000000000,-122.283333333330006,"San Francisco Bay Area","San Francisco Bay Area"
8585811569,"Calle Miguel Yuste, 40","Madrid (Madrid, Spain)",8585811569,38.272688535980997,-0.703125000000000,"El País","El País"
221820019,"","",106477602721744,45.481194444444000,-73.553111111110994,"Pointe-Saint-Charles","Pointe-Saint-Charles"
566966959,"","",109524955741121,21.000000000000000,77.000000000000000,"India","India"
1001214643,"Olubunmi Owa Street, Off Admiralty Way","Lekki Phase 1, Lagos, Nigeria",283931935119776,6.445650000000000,3.471390000000000,"Nigerian-British Chamber of Commerce","Nigerian-British Chamber of Commerce"
598735242,"12 Angel Street","Worcester",1380685398882982,52.193690771999996,-2.222490300000100,"Horn & Trumpet Worcester","Horn & Trumpet Worcester"
1019680656,"","Milano",38812693516,45.477726680068997,9.144586973064801,"Il Sole 24 ORE","Il Sole 24 ORE"
227846917,"","",105548172812498,52.370359999999998,-1.260790000000000,"Rugby, Warwickshire","Rugby"
357094423,"Columbia Rd","",521500221282530,51.529389108514003,-0.069681782114898,"Columbia Road Flower Market","Columbia Road Flower Market"
217260754,"31 - 33 Heddon Street","London, United Kingdom",118879908161180,51.511139499999999,-0.139841000000000,"Belowzero Ice Bar","Belowzero Ice Bar"
207309649882764,"400 New Britain Ave","Hartford",207309649882764,41.671464999999998,-72.836881000000005,"Waxy O'connors Irish Pub","Waxy O'connors Irish Pub"
1008217545,"905 Dunsmuir Street","",1037203939623175,49.285098816596999,-123.118796579930006,"Royal Dinette","Royal Dinette"
229934818,"188-196 Regent Street","London, United Kingdom",145101825512128,51.512795837238997,-0.139924843709930,"Hamleys","Hamleys"
227786973,"Harrow Rd","",108242262531207,51.528599999999997,-0.224100000000000,"Kensal Green Cemetery","Kensal Green Cemetery"
643827265980327,"","London, United Kingdom",643827265980327,51.752676299999997,-1.253253200000000,"Buckingham Palace, London","Buckingham Palace"
213911969,"","",111499475542539,49.746499999999998,13.376400000000000,"Plzen, Czech Republic","Plzen"
213345331,"Mühlenstraße 6","",137558422931650,52.503055555556003,13.444722222222000,"East Side Gallery","East Side Gallery"
264865596,"2000 Southern Oaks Dr","Austin, Texas",115031468273,30.218874465999999,-97.795729369000000,"Full English","Full English"
281155698,"","",113218865371774,53.414813525762000,-2.090082703574600,"Romiley, Stockport, United Kingdom","Romiley"
718333740,"Catharijnesingel 59","Utrecht, Netherlands",249332198467918,52.086900000000000,5.116670000000000,"Nederlandse Voedsel- en Warenautoriteit","Nederlandse Voedsel- en Warenautoriteit"
216946265,"","",113767261971097,52.496499999999998,13.411600000000000,"Kreuzberg, Berlin, Germany","Kreuzberg"
214282458,"Kaiserstraße 29","",108003912562000,50.108899999999998,8.703400000000000,"European Central Bank","European Central Bank"
450526,"Lyric Square ","London, United Kingdom",38239196511,51.493096938489003,-0.226175182514470,"Lyric Hammersmith","Lyric Hammersmith"
215093535,"Avinguda Autopista del Saler 1-3-5-7","",143215529023439,39.454527777777997,-0.350363888888890,"City of Arts and Sciences","City of Arts and Sciences"
244595490,"8-10 Old Jewry, London. EC2R 8DN","London, United Kingdom",180562461980072,51.514042799999999,-0.090772300000000,"Browns Old Jewry","Browns Old Jewry"
912041079,"158-164 Albertbridge Road","Belfast, United Kingdom",305064699562996,54.595340000000000,-5.903280000000000,"Covenant Love Church Belfast","Covenant Love Church Belfast"
215451478,"","",105653082800923,53.408700000000003,-2.982900000000000,"Liverpool","Liverpool"
219263844,"","",112108588805564,50.152220000000000,-5.080000000000000,"Falmouth, Cornwall","Falmouth"
501705465,"","",112542488771784,48.208835888003002,10.578599405058000,"Lutzenberg","Lutzenberg"
228453086,"","",108027522559103,43.703659999999999,7.309190000000000,"Villefranche-sur-Mer","Villefranche-sur-Mer"
1768654939926661,"Waterloo Railway Station","Se1, London",1768654939926661,51.499499999999998,-0.115560000000000,"Waterloo","Waterloo"
34439644,"","",108417639182046,51.591999999999999,-0.143000000000000,"Muswell Hill","Muswell Hill"
271354971,"","",101876523186813,20.023499999999998,-75.819699999999997,"Santiago de Cuba, Cuba","Santiago de Cuba"
235707427,"Avenue de l'Europe","Strasbourg, France",42276542714,48.594884259023999,7.771909041414300,"Council of Europe","Council of Europe"
252039615,"","",104010466300777,49.502299999999998,10.417750000000000,"Bad Windsheim","Bad Windsheim"
263045141,"","",112841195395940,46.086979900000003,2.045380000000000,"Ahun","Ahun"
762691167171636,"10 rue Edouard Vaillant","",762691167171636,50.641963184319998,4.666209632935500,"Europe/Brussels","Europe/Brussels"
540279702,"Barnet Hill","",137958362894691,51.650556000000002,-0.194167000000000,"High Barnet tube station","High Barnet tube station"
236951133,"","",105600152806316,50.935088888888998,-0.201911111111110,"Albourne","Albourne"
238860350,"","",113179132028947,39.100864909198997,16.094551159647001,"Amantea","Amantea"
1720384744842666,"Westbrook Shopping Centre, Cromwell Avenue","",1720384744842666,53.408172816117997,-2.629584074020400,"Asda","Asda"
461827380,"","",107768755912419,34.816666666666997,32.899999999999999,"Agios Georgios, Limassol","Agios Georgios"
802987346,"Pedley St,","",344385862421435,51.523112108688998,-0.069145316489278,"Nomadic Community Garden, Shoreditch","Nomadic Community Garden"
226457144,"","",101882733186088,51.266700000000000,7.183330000000000,"Wuppertal, Germany","Wuppertal"
213321652,"","",110837332277562,55.592199999999998,13.007300000000001,"Malmö, Sweden","Malmö"
3383808,"6 Camden Street lower","Dublin, Ireland",166161636796378,53.336089999999999,-6.265140000000000,"Flannery's Dublin","Flannery's Dublin"
1008814131,"70 Woodstock Rd","",126238114086249,51.764444439999998,-1.264166670000000,"Oxford Centre for Mission Studies","Oxford Centre for Mission Studies"
284260242292481,"5 Strand","",284260242292481,51.508133299999997,-0.126238199999990,"City of Westminster","City of Westminster"
227778735,"Jesmond Dene Rd.","",109687495717775,54.998959466346001,-1.603450327285400,"Jesmond Dene House","Jesmond Dene House"
1627990850556491,"Platz der Republik 1","",1627990850556491,52.518610000000002,13.375530000000000,"Deutscher Bundestag","Deutscher Bundestag"
229285831,"","",106242976078694,51.765973229560998,-1.836582883368400,"Bibury, Gloucestershire","Bibury"
214411502,"392 N Michigan Ave","",103131599727382,41.888860999999999,-87.624360999999993,"Michigan Avenue Bridge","Michigan Avenue Bridge"
573641796,"Apina nui sin numero","Hanga Roa",1400856976818999,-27.150490452753001,-109.434352379789999,"HOTEL TAHA TAI","HOTEL TAHA TAI"
336805915,"The Mall","",135871319777342,51.501832999999998,-0.140639000000000,"Victoria Memorial, London","Victoria Memorial"
213900131,"","",109510942401443,38.962777777778001,-9.415277777777799,"Ericeira","Ericeira"
105727649,"Seven Sisters Rd","",150845644949287,51.564069199999999,-0.103640900000000,"Finsbury Park","Finsbury Park"
229957661,"","",112949522052487,53.921349999999997,-3.014410000000000,"Fleetwood","Fleetwood"
931608183586252,"38 Panton Street","Londra",931608183586252,51.509508400000001,-0.132105400000000,"Tasting Sicily UK Enzo's Kitchen","Tasting Sicily UK Enzo's Kitchen"
263729206,"","",107959522566297,42.674759999999999,11.869870000000001,"Grotte di Castro","Grotte di Castro"
200242243332397,"70A Longmead Dr","",200242243332397,51.434650997500000,0.126969810000000,"Aspen Vet Surgery","Aspen Vet Surgery"
562690773,"","",361310333977578,-38.448570980964000,145.210003242569996,"Cowes, Phillip Island, Victoria","Cowes"
346460903,"","",119423091436589,51.560261111110996,-0.160669444444440,"Parliament Hill, London","Parliament Hill"
228345331,"","",110987652259139,45.450000000000003,8.616700000000000,"Novara, Italy","Novara"
241711092917413,"Donegall Quay","",241711092917413,54.602849999999997,-5.921840000000000,"AC Hotel Belfast","AC Hotel Belfast"
312971331,"","",491520250877985,51.779499999999999,1.117400000000000,"Jaywick, England, United Kingdom","Jaywick"
287988665,"","",116240078390432,51.716700000000003,-3.850000000000000,"Pontardawe, Neath Port Talbot, United Kingdom","Pontardawe"
64769,"","",108241442536812,51.500833333332999,-0.121944444444440,"Westminster Bridge","Westminster Bridge"
522780963,"","",236423373039359,61.333333333333002,5.833333333333300,"Sogn og Fjordane","Sogn og Fjordane"
214281303,"","",114558275227122,53.133299999999998,-1.200000000000000,"Mansfield, Nottinghamshire","Mansfield"
893984185,"","",750857961688765,50.833333333333002,-2.333333333333300,"Dorset","Dorset"
2071201372896433,"","",2071201372896433,55.718783070592004,12.552228858815999,"Emdrup sø","Emdrup sø"
592585351,"Leberngasse 9","Olten",138586842853777,47.348990000000001,7.900990000000000,"Stadtmixbar Olten","Stadtmixbar Olten"
933034123457929,"165 Smarts Lane","",933034123457929,51.648756200000001,0.051011900000000,"The Victoria Tavern","The Victoria Tavern"
217405346,"","",111987392145759,51.507300000000001,-0.061000000000000,"Wapping","Wapping"
236500454,"","",110467422312148,-34.024851586689003,18.419442998347002,"Constantia, Western Cape, South Africa","Constantia"
116160,"Albert Dock","Liverpool, United Kingdom",111621718863090,53.401364148893997,-2.992064781193600,"Royal Albert Dock Liverpool","Royal Albert Dock Liverpool"
977788782387110,"Victoria Street","SW1, London",977788782387110,51.492109800000002,-0.149921000000000,"London Victoria","London Victoria"
322800512,"1st Ave","",538478336162472,40.750442744221999,-73.967911057302004,"United Nations Headquarter","United Nations Headquarter"
36318815,"Weißenburgstraße 29","Stuttgart, Germany",119787161434713,48.768270000000001,9.178410000000000,"The English Tearoom","The English Tearoom"
1031925104,"64 - 66 Brooksby's Walk","",151231838595817,51.551009899999997,-0.043259400000000,"The Castle Cinema","The Castle Cinema"
224659168309519,"Tower Bridge Rd","E1, London",224659168309519,51.505573167145997,-0.075381710133481,"Tower Bridge Exhibitiion","Tower Bridge Exhibitiion"
263198275,"W 28th St","",174773375901748,40.745249390601998,-73.988665938376997,"Manhattan New York Broadway","Manhattan New York Broadway"
310095325,"","",113189565362270,51.499444444444002,-0.124166666666670,"Palazzo di Westminster","Palazzo di Westminster"
324289256,"","",106362462729311,30.555531882000000,-81.443970750999995,"Amelia Island Plantation","Amelia Island Plantation"
263202787416804,"Carrer del Consolat del Mar, 4,","Valence, Valenciana, Spain",263202787416804,39.462739900000002,-0.371580000000000,"Sweets And Coffee","Sweets And Coffee"
658574744245280,"","London, Greater London",658574744245280,51.482039000000000,-0.193893000000000,"London Underground","London Underground"
240112613,"","",104346296271559,53.837960000000002,-1.772880000000000,"Shipley, Bradford, United Kingdom","Shipley"
2510350,"50-52 Brushfield Street","London, United Kingdom",160184707326238,51.519176999999999,-0.076536310155044,"The English Restaurant","The English Restaurant"
137174991,"Fulham Palace, Bishops Park, Bishops Ave","London, United Kingdom",158513914174944,51.470381033083001,-0.215025034315220,"Fulham Palace","Fulham Palace"
357893924714804,"The Friar Pub, St Johns","Colchester, Essex",357893924714804,51.902589999999996,0.929760000000000,"The Friar Pub - St Johns","The Friar Pub - St Johns"
227761111,"Brod, Dragash","Dragashi",121723667838714,41.965201252000000,20.711094227000000,"Mountain Resort Arxhena","Mountain Resort Arxhena"
971718569673415,"","Ilford, Essex",971718569673415,51.601669999999999,0.088760000000000,"Ilford","Ilford"
232512932,"","",115912331755746,50.785100000000000,-3.647400000000000,"Crediton, Devon","Crediton"
54779960819,"","",54779960819,40.748801288773997,-73.968307971954005,"United Nations","United Nations"
10469642,"","",108394829184469,50.733300000000000,-1.766670000000000,"Christchurch, Dorset","Christchurch"
9706314,"","",107913472562945,55.730139999999999,12.361010000000000,"Ballerup","Ballerup"
367226780714142,"High Street","",367226780714142,51.508542131075998,-0.590729713439940,"Slough Town Centre","Slough Town Centre"
249915409,"","",107187802653934,-33.497590000000002,21.268570000000000,"Ladismith, Western Cape, South Africa","Ladismith"
2014147,"Clapton Sq","London, England",142040049171870,51.551306840186001,-0.053964760731012,"Clapton Square","Clapton Square"
449507392,"","",108646839159211,61.000000000000000,8.000000000000000,"Norway","Norway"
1754093441520776,"","Upminster, Havering, United Kingdom",1754093441520776,51.558940000000000,0.251346000000000,"C2c - Upminster Railway Station","C2c - Upminster Railway Station"
214986509,"","",105752519458380,53.814999999999998,-3.044700000000000,"Blackpool","Blackpool"
158139721481871,"","",158139721481871,-44.005210510528002,170.478451408620003,"Lake Tekapo","Lake Tekapo"
228039723,"West Park Dr","",138055966218694,53.814700000000002,-3.029210000000000,"Stanley Park, Blackpool","Stanley Park"
48051,"211 Stockwell Road","London, United Kingdom",11424062018,51.465306922468002,-0.114855081462650,"O2 Academy Brixton","O2 Academy Brixton"
202718670279666,"21 Great Tower St","London",202718670279666,51.509674500000003,-0.081222099999991,"BrewDog Tower Hill","BrewDog Tower Hill"
152207758961970,"","Glasgow, Lanarkshire",152207758961970,55.859392800000002,-4.254748300000000,"Buchanan Street","Buchanan Street"
443787276,"11a Little Ellen Street","Limerick, Ireland",271144186429643,52.664563392654998,-8.624132788489700,"Cobblestone-Joes","Cobblestone-Joes"
50274789,"21 Dean Street","London, United Kingdom",16442759630,51.514510799999996,-0.132876000000000,"Soho Theatre","Soho Theatre"
227812170,"","",115595751790356,51.454702321356002,-2.618218841379800,"Clifton, Bristol, United Kingdom","Clifton"
507050766343133,"","",507050766343133,51.500755377649000,-0.124518871307370,"London City","London City"
301027844065270,"Collegiate Church of St.Peter , London - England","London, United Kingdom",301027844065270,-8.635297000000000,115.237710000000007,"Westminster Abbey","Westminster Abbey"
166274064099609,"via Roma 29","",166274064099609,44.564990000000002,11.272190000000000,"Casa della Cultura ""Italo Calvino""","Casa della Cultura ""Italo Calvino"""
1132375433527583,"","London",1132375433527583,51.507560099999999,-0.107702499999960,"Central London","Central London"
391272856,"","",109113672442061,55.684100000000001,12.368940000000000,"Herstedøster, Kobenhavn, Denmark","Herstedøster"
248153023,"North Street","",428112923894267,51.441533623635998,-2.612375392795100,"North Street - Bedminster","North Street - Bedminster"
1363050,"Torre de Capitanía","Palma de Mallorca, Spain",151157531584412,39.531640825776996,2.567920783333300,"Puerto Portals","Puerto Portals"
128777,"Westminster Bridge Rd","",476369979124535,51.503240465407998,-0.120233212960050,"London Eye River Cruise","London Eye River Cruise"
364987480571315,"Seven Sisters Country Park, Exceat","Seaford, East Sussex",364987480571315,50.742909326837001,0.201200827466090,"Seven Sisters Cliffs","Seven Sisters Cliffs"
262114833864861,"","",262114833864861,53.334971331746999,-6.227658374418400,"Lansdowne Rugby Stadium","Lansdowne Rugby Stadium"
1019744852,"","",804658306269077,53.789527634999999,-1.550498815000000,"Headingley, Kirkstall","Headingley"
207099269901492,"94 St Aldates","Oxford, Oxfordshire",207099269901492,51.750636999999998,-1.257020000000000,"George and Danver","George and Danver"
243853883,"","",104015502967926,56.250000000000000,-3.200000000000000,"Fife","Fife"
910799879123847,"","",910799879123847,51.968061400000003,-0.947368600000000,"VEGO","VEGO"
1030041024,"Kamil Özalp Mah. Koza Cad. 37/6","Ankara",319968274799294,39.906979256503000,32.859967947005998,"ETRE Mühendislik Knx Akıllı Bina Teknolojileri","ETRE Mühendislik Knx Akıllı Bina Teknolojileri"
30613697,"","",105537092814119,50.863500000000002,4.374400000000000,"Schaerbeek","Schaerbeek"
220667528,"","",112449655435016,51.512149978651998,-0.063263346535337,"Whitechapel","Whitechapel"
283619647,"","",110697872285166,41.842272784941997,1.880953355050900,"Catalonia, Spain","Catalonia"
704122889735603,"32 Veals Mead","",704122889735603,51.412480000000002,-0.168540000000000,"Londyn","Londyn"
230717698,"","",108395625858192,51.782640000000001,-1.496170000000000,"Witney, Oxfordshire","Witney"
911757913,"","",137318359623764,50.596230555555998,-3.778780555555600,"Hound Tor","Hound Tor"
223637292,"","",106476236054965,37.950000000000003,58.383299999999998,"Ashgabat, Turkmenistan","Ashgabat"
558656264,"48700 N Ironwood rd","San Tan Valley, Arizona",734987969928272,32.116679685945002,-110.898817587360000,"Wild West Shootout","Wild West Shootout"
332870204,"","London, United Kingdom",167335179987217,51.512498744081000,-0.135720958539320,"Portobello Road","Portobello Road"
478424910,"46 Druid Street","London, United Kingdom",515415518537402,51.500684387222002,-0.077013662777693,"Southwark Brewing Company","Southwark Brewing Company"
273676191,"223a Randolph Avenue","London, United Kingdom",112764598778459,51.532185435862999,-0.189120304892250,"Iyengar Yoga Maida Vale, London","Iyengar Yoga Maida Vale"
251281222,"28-32 Collingwood Street","Newcastle upon Tyne",120540778034400,54.969989300000002,-1.613405200000000,"Florita's Miami Bar","Florita's Miami Bar"
1460657927344334,"","",1460657927344334,7.375509851333700,99.305983378555993,"Koh Mook ปังสด","Koh Mook ปังสด"
168391683879368,"Foodcentral","Saint Margaret'S, Dublin, Ireland",168391683879368,53.472722235855002,-6.294736862182600,"FruitBox","FruitBox"
229701416,"","",109452302419217,53.367900354823000,-2.936152157468700,"Aigburth, Liverpool, United Kingdom","Aigburth"
213332684,"","",103505616369943,50.009722222222003,8.284444444444400,"Mainz-Kastel","Mainz-Kastel"
778298448986725,"","",778298448986725,55.167351689763002,-6.790242817769000,"Castlerock Beach","Castlerock Beach"
216160672,"","Fernandina Beach, FL",216829750081,30.670776703392001,-81.464469744669003,"Amelia Island","Amelia Island"
65648277,"","",112742698740764,51.383000000000003,-2.660300000000000,"Winford","Winford"
215856743,"","",108602049163696,45.448860000000003,6.980300000000000,"Val-d'Isère","Val-d'Isère"
1614365095270600,"4 Bridge Street","",1614365095270600,51.401479400000000,-1.324013200000000,"7Bone Burger Co","7Bone Burger Co"
1013654825481014,"123 Stoke Newington High Street","",1013654825481014,51.560555600000001,-0.074177800000000,"Morgan Has Solicitors","Morgan Has Solicitors"
373916905,"Joaquín Blanco Torrens, S/N Joaquin Blanco Torrent s/n Club Marítimo Varadero","Las Palmas de Gran Canaria, Spain",169862506386596,28.127886810764000,-15.427904592987000,"Restaurante Embarcadero","Restaurante Embarcadero"
228346601,"","",112298052120955,52.982999999999997,-1.145000000000000,"Sherwood, Nottingham","Sherwood"
291347111,"","",113001458715459,50.066699999999997,-5.616670000000000,"Saint Buryan, Cornwall, United Kingdom","Saint Buryan"
340384938,"","",135753236454970,52.247669999999999,21.013330000000000,"Castle Square, Warsaw","Castle Square"
1319604,"Knabrostræde 19","Copenhagen, Denmark",186876378066911,55.677030000000002,12.575699999999999,"Comedy Zoo","Comedy Zoo"
48158,"Parvis Saint-Gilles 39","Brussels, Belgium",8580762607,50.830419900000002,4.345670000000000,"Café Maison du Peuple","Café Maison du Peuple"
228582881068921,"","",228582881068921,51.516207000000001,-0.146748600000020,"1 Wimpole Street","1 Wimpole Street"
226111020,"1 Union Street","Belfast, United Kingdom",537771372963649,54.604068609357000,-5.930971893268000,"Maverick Belfast","Maverick Belfast"
267050208,"A590","Penrith, Cumbria",10150161245445221,54.305100850690003,-2.721750770205600,"Lake District National Park","Lake District National Park"
237264952,"","",112631668753548,50.727629999999998,1.615080000000000,"Boulogne-Sur-Mer, Nord-Pas-De-Calais, France","Boulogne-Sur-Mer"
23320,"Barbican Centre, Silk Street","London, United Kingdom",37166654192,51.519713542719998,-0.093724975812647,"Barbican Centre","Barbican Centre"
215095459,"","",109470002416572,51.887400000000000,0.900800000000000,"Colchester, Essex","Colchester"
228568048,"","",110377415658035,50.397806089531002,-5.027699052264000,"Newquay, Cornwall","Newquay"
228067613,"78 granby street","",135125623185662,52.636000000000003,-1.133000000000000,"Leicester City Centre","Leicester City Centre"
908459698,"","",430896233628116,51.886200000000002,-8.474200000000000,"The Lough, Cork","The Lough"
112565759233167,"9 Gervis Place","",112565759233167,50.719989599999998,-1.876302800000000,"7Bone Burger Co","7Bone Burger Co"
1020641461,"Level 42, 122 Leadenhall Street ","",546568505500213,51.513663399999999,-0.081965900000000,"Landing Forty Two, the Leadenhall Building","Landing Forty Two"
236339942,"39 Lower Domnick Street","Galway, Ireland",148921511969935,53.270742710070003,-9.057530987764800,"Carroll's on Dominick Street","Carroll's on Dominick Street"
1919859,"","",158964120809209,51.543056928193998,-0.005907112964013,"Westfield Stratford City","Westfield Stratford City"
170208596419247,"Marshall Hall Mills","Elland, United Kingdom",170208596419247,53.678674885223998,-1.832712350562400,"Firebelly Stoves Ltd","Firebelly Stoves Ltd"
406668819845376,"amstelzijde 83","Amstelveen",406668819845376,52.297919999999998,4.898570000000000,"Edu2start","Edu2start"
213893253,"","",111974508818559,52.416069999999998,-4.077870000000000,"Aberystwyth","Aberystwyth"
518702291641754,"Willmerstr. 20","Hanover",518702291641754,52.342275938472000,9.762866591045199,"Allianz Hauptvertretung Markus Ressel","Allianz Hauptvertretung Markus Ressel"
252732562,"Rosenthaler Str. 39","",393048687484578,52.524304465469001,13.402566587647000,"Haus Schwarzenberg - Berlin","Haus Schwarzenberg - Berlin"
336819267,"","",104046209630672,53.376666999999998,-6.338611000000000,"Phoenix Park","Phoenix Park"
228138900,"","",109562722408085,51.506607860781998,-0.226023509261660,"Shepherds Bush, Newham, United Kingdom","Shepherds Bush"
1719792948259077,"Donadea","Kildare, Ireland",1719792948259077,53.352818807778000,-6.779993857777800,"RochesDonadea","RochesDonadea"
255615047,"","",107023942671602,45.378900000000002,13.723900000000000,"Grisignana,  Istarska, Croatia","Grisignana"
1035633914,"40 Trinity Square","London, United Kingdom",564066053759324,51.509984733143000,-0.076497007571429,"citizenM Tower of London","citizenM Tower of London"
270460513729,"","Badminton, United Kingdom",270460513729,51.551485590623002,-2.284684181213400,"Badminton Horse Trials","Badminton Horse Trials"
213056001,"1 Cluny Road","Singapore, Singapore",146148432222979,1.311078080901600,103.817174434660004,"Singapore Botanic Gardens","Singapore Botanic Gardens"
786345232,"","",109486955737943,52.516666666667000,13.383333333333001,"Berlin","Berlin"
282852459189861,"82 Lower Glanmire Road","",282852459189861,51.902419999999999,-8.458780000000001,"Lab 82 Coffee","Lab 82 Coffee"
526626226,"","",106493822716872,48.804699999999997,44.585799999999999,"Stalingrad, Volgogradskaya Oblast', Russia","Stalingrad"
192240704701888,"6250 Hollywood Blvd","Los Angeles, California",192240704701888,34.100955399999997,-118.325830300000007,"W Hotel Hollywood","W Hotel Hollywood"
220545821,"","",110064215689410,48.404989999999998,2.701190000000000,"Fontainebleau, France","Fontainebleau"
340041888,"3 Lesney Avenue, The Broadcast Centre, Here East, Queen Elizabeth Olympic Park","London, United Kingdom",573401376012295,51.548367291527001,-0.023565511522559,"Loughborough University London","Loughborough University London"
1018304769,"6 Warwick Lane","Worthing, West Sussex",1481230318866742,50.811959999999999,-0.368479900000000,"The Neon Sanctum","The Neon Sanctum"
386235873,"","",217632911604873,45.788249999900003,1.867540000230000,"Limousin, France","Limousin"
1922459388002992,"34 Rue de Bourgogne ","Paris",1922459388002992,48.857770000000002,2.317500000000000,"Au Coin de la Rue","Au Coin de la Rue"
225170704,"","",113220962060361,32.057591670000001,34.771558329999998,"Florentin, Tel Aviv","Florentin"
546345295,"Sotogrande","La Línea de la Concepción, Spain",235026846660219,36.290731133274001,-5.275160850508300,"Sotogrande","Sotogrande"
32672,"Rua Nova da Alfândega","Porto, Portugal",301575023201461,41.143114564260003,-8.621399618388301,"Alfandega do Porto","Alfandega do Porto"
813777351,"","",1585861418335484,51.452819900000002,-2.626499320000000,"Hotwells, Clifton","Hotwells"
227862655,"3e Katendrechtsehoofd 25","Rotterdam, Netherlands",330905383638433,51.897954908498001,4.473506368131200,"ss Rotterdam","ss Rotterdam"
428554254340322,"14  Rue Sainte-Claire","Annecy",428554254340322,45.898490000000002,6.124810000000000,"Le Freti Mhc","Le Freti Mhc"
15378417,"Altwood Rd","Maidenhead, United Kingdom",155003887861154,51.516378089729002,-0.751182664843260,"Altwood Church of England School","Altwood Church of England School"
491850154321034,"144 Liverpool Road","",491850154321034,51.539606200000002,-0.106352900000000,"Zasman Vet","Zasman Vet"
236560108,"","",112144485469783,52.105469999999997,1.325410000000000,"Woodbridge, Suffolk","Woodbridge"
1032076837,"54 Streatham hill","London, United Kingdom",750352718419871,51.441800499999999,-0.124893100000000,"Batch & Co","Batch & Co"
170493553630734,"","South Yorkshire",170493553630734,51.493639999999999,-0.224336000000000,"He'll on Earth","He'll on Earth"
169676297199377,"","Folkestone, Kent",169676297199377,51.096000770408999,1.126144681171100,"Euro Tunnel Folkestone","Euro Tunnel Folkestone"
105498396149741,"","",105498396149741,51.125397649999996,1.313290290000000,"Dover Museum, England","Dover Museum"
528935113936230,"Levels -1 to 6  Peckham Town Centre Carpark 95A Rye Lane London SE15 4ST","London, United Kingdom",528935113936230,51.472809599999998,-0.069989300000000,"Peckham Levels","Peckham Levels"
221030217,"","",113723385305024,53.114030000000000,-3.304470000000000,"Ruthin","Ruthin"
144372215689544,"luxembourgweg 2","",144372215689544,51.943645363283998,4.132066519675300,"Rotterdam-hull Ferry","Rotterdam-hull Ferry"
1192657,"10 Godliman Street","",102082756521910,51.512835905884998,-0.099599947835117,"Grange St Paul's","Grange St Paul's"
223347173,"Brooklands Drive","",108290305865641,51.348888888889000,-0.472500000000000,"Brooklands","Brooklands"
160140244630799,"9 Fitzmaurice Place","England",160140244630799,51.508306900000001,-0.145114100000000,"The Lansdowne Club","The Lansdowne Club"
505550852807773,"1 Drumkeeran Road","Antrim, Antrim, United Kingdom",505550852807773,54.784269999999999,-6.252540000000000,"Martin handmade hurleys and gifts","Martin handmade hurleys and gifts"
636992966494778,"Private Rd","Mandaluyong, National Capital Region",636992966494778,14.570318100000000,121.034311200000005,"Private Road","Private Road"
286084518671507,"1 Principal Place","",286084518671507,51.521782000000002,-0.080243999999993,"Principle Place - Amazon HQ","Principle Place - Amazon HQ"
9112648,"Invergowrie","",216767975029326,56.456135675283001,-3.069047927856400,"The James Hutton Institute","The James Hutton Institute"
639187619832888,"Martindale, Cannock, Staffordshire","",639187619832888,52.694491686734999,-2.011833786964400,"One Stop Grow Shop Hydroponics","One Stop Grow Shop Hydroponics"
1014153830,"Avenida Luis Carlos Berrini, 550 - cj 32","São Paulo (São Paulo, Brazil)",1212613505431361,-23.601602484297000,-46.691755056380998,"Eleven Financial Research","Eleven Financial Research"
786810358,"","",198399480368380,51.547198161083998,-0.120489585724500,"Islington","Islington"
225608026,"Hertfordshire","Hatfield",41030292517,51.751935999086001,-0.242180317397140,"University of Hertfordshire","University of Hertfordshire"
920984644604842,"Castle St","",920984644604842,56.648349377328998,-2.886824299748800,"Tesco","Tesco"
155412,"Stadionweg 1","",215403035142742,52.612499999999997,4.741667000000000,"AFAS Stadion","AFAS Stadion"
227578743,"","",115935195086622,50.836210000000001,-0.775430000000000,"Chichester, West Sussex","Chichester"
236928572,"","",115428275138500,50.775477858415002,1.615443262034900,"Wimereux, France","Wimereux"
234859198,"","",241715432523792,45.799511681845999,6.108012963960800,"Semnoz","Semnoz"
1020934716,"","Faro, Portugal",1636250056663755,37.020266540969999,-7.968338342770200,"Algarve Portugal","Algarve Portugal"
1757932,"467 Herndon Pkwy","Herndon, VA",232916606733445,38.956540627384001,-77.375751138039007,"Hyatt House Herndon/Reston","Hyatt House Herndon/Reston"
214631065214021,"Church Street East Dereham Norfolk","",214631065214021,52.681097511688002,0.939204828327890,"The Romany Rye - Wetherspoons","The Romany Rye - Wetherspoons"
108946325833098,"16 a Boulevard de Reuilly","Paris, France",108946325833098,48.838810000000002,2.391500000000000,"Gymglish","Gymglish"
576136854,"Akademiestrasse 13","Vienna, Austria",1547937105452161,48.200949999999999,16.371230000000001,"Stadtkino Wien","Stadtkino Wien"
1012019382,"","",103825756323395,51.511000000000003,-0.045000000000000,"Ratcliff","Ratcliff"
217198679,"Borlänge","",109442582407087,60.485555555555997,15.436269444443999,"Borlänge","Borlänge"
226488848,"","",111688712184378,51.228610000000003,-2.317190000000000,"Frome, Somerset","Frome"
1019936080,"Alte Seilerei 9 - 11","Bamberg",1110251112335554,49.902540464340000,10.883395671843999,"Alte Seilerei Bamberg","Alte Seilerei Bamberg"
887880,"1 Olympic Way, Queen's Road","Belfast, United Kingdom",140918802636509,54.608291484856998,-5.910065174102800,"Titanic Belfast","Titanic Belfast"
626385147745485,"30 Stamford Hill","London, United Kingdom",626385147745485,51.565001500000001,-0.072955100000000,"The Perfect Shirt Dry Cleaners","The Perfect Shirt Dry Cleaners"
205705,"22-24 Donnybrook rd","Dublin, Ireland",99652189743,53.322267414000002,-6.236636421502200,"Kiely's Of Donnybrook","Kiely's Of Donnybrook"
79616907,"","",103729219665367,16.784199999999998,96.152900000000002,"Yangon","Yangon"
372135,"35 Sir John Rogersons Quay","Dublin, Ireland",194686577218815,53.346056300000001,-6.240689700000000,"The Ferryman","The Ferryman"
289589324749932,"40 Upper Baggot Street","",289589324749932,53.333253999999997,-6.243126000000000,"Paddy Power","Paddy Power"
1022927662,"19 East Parade","",1521767208145404,50.856028899999998,0.590222900000000,"The Old Custom House","The Old Custom House"
256832220,"","",116065505076117,28.166049999999998,-17.196899999999999,"Hermigua, Canarias, Spain","Hermigua"
213275789,"","",115725088437789,54.000000000000000,-6.416670000000000,"Dundalk, Ireland","Dundalk"
893313421,"","",730267607084004,40.656959999999998,-75.506330000000006,"Whitehall","Whitehall"
215170359,"","",111721765513866,56.074770000000001,-3.461370000000000,"Dunfermline, Fife","Dunfermline"
133188773903594,"1  Arlington Way","EC1, London",133188773903594,51.529587800000002,-0.106747300000000,"Shakespeare's Head","Shakespeare's Head"
441496965,"Widok 10","Wroclaw, Poland",426735034064813,51.106396782163998,17.033612430096000,"Parlament Europejski - Biuro we Wrocławiu","Parlament Europejski - Biuro we Wrocławiu"
221602395,"","",110710585624249,52.030999999999999,8.531700000000001,"Bielefeld, Germany","Bielefeld"
259631,"Rue Gineste 3","Brussels",110850502269075,50.855456725411997,4.360004136245700,"Crowne Plaza Brussels - Le Palace","Crowne Plaza Brussels - Le Palace"
203231,"","",108282792528770,51.431699999999999,-2.660000000000000,"Long Ashton","Long Ashton"
84049133052,"Bullring","Birmingham, United Kingdom",84049133052,52.477800000000002,-1.894290000000000,"Bullring & Grand Central Birmingham","Bullring & Grand Central Birmingham"
477516373,"344 Oxford Road","Gomersal",458318354188793,53.733860700000001,-1.686385700000000,"Ginger Whale","Ginger Whale"
521306671669079,"Lot 58865 Kampong Rimba","Bandar Seri Begawan, Brunei",521306671669079,4.951596700000000,114.907010000000000,"Giant Hypermarket Tasek Rimba","Giant Hypermarket Tasek Rimba"
140860519,"Av De L'Esplanade","Brussels Hoofdstedelijk Gewest",521769707837373,50.901053187902001,4.341812436158200,"Palais 12 / Paleis 12","Palais 12 / Paleis 12"
500690173684780,"3 Queen Victoria Street","",500690173684780,51.512629500000003,-0.090943000000038,"Bloomberg LP","Bloomberg LP"
220234274,"","",106346746071495,51.583599999999997,-0.021100000000000,"Walthamstow, United Kingdom","Walthamstow"
421222612,"42 Balls Pond Road","London, United Kingdom",308303552675604,51.546222899999996,-0.076952600000000,"Subtitles Café","Subtitles Café"
278018039,"","",110197499010045,51.787635704675999,0.005267458198653,"Stanstead Abbots","Stanstead Abbots"
271209887,"Kartäuserwall 20","Köln, Deutschland",765200736840202,50.922559999999997,6.957800000000000,"Altes Pfandhaus","Altes Pfandhaus"
238081664,"","",396208763830957,50.830598163278999,4.345302858194100,"Parvis de Saint-Gilles/Sint-Gillis Voorplein premetro station","Parvis de Saint-Gilles/Sint-Gillis Voorplein premetro station"
168312,"","Guildford, Surrey",115123318240,51.243125669439998,-0.588899179743630,"University of Surrey","University of Surrey"
1464694056987285,"20a Raeburn St","",1464694056987285,55.958942556170001,-3.210604190826400,"Studio Bizio","Studio Bizio"
258985920,"Via Zabarella 80","Padova",205330122970262,45.408149999999999,11.879080000000000,"Libreria Zabarella","Libreria Zabarella"
275881827,"Im MediaPark","Köln, Germany",360959134018223,50.948248176101998,6.944067478179900,"MediaPark Köln","MediaPark Köln"
219895639,"","",107509832612128,43.338799999999999,17.811200000000000,"Mostar","Mostar"
232022192,"","",114982701851116,53.316361899889998,-0.927828391978020,"East Retford","East Retford"
227389491,"","",186981277997738,51.311700000000002,-0.594163000000000,"St John's, Woking","St John's"
237837473243764,"","",237837473243764,39.992899999999999,-0.057680000000000,"Castellón de la Plana/Castelló de la Plana","Castellón de la Plana/Castelló de la Plana"
656201917839030,"Rierany dels Frares, 67-73 local 2","Vector",656201917839030,41.618299999999998,2.669180000000000,"Alexia Palet- Traductora Jurada","Alexia Palet- Traductora Jurada"
214708568,"SE24","",109570185735437,51.454400000000000,-0.093600000000000,"Herne Hill","Herne Hill"
752179729,"Aviation Business P Building 307","",137199306301020,50.780000000000001,-1.842500000000000,"Bournemouth Airport","Bournemouth Airport"
229728221,"","",109272259099204,55.862983331598997,-4.214244644535600,"Dennistoun","Dennistoun"
201179719921673,"Knowle Hill, Newtown, Chew Magna, Bristol","Bristol, United Kingdom",201179719921673,51.349875947000001,-2.593342320500000,"The Pony & Trap","The Pony & Trap"
1307692,"196 Bruntsfield Pl","",156363501055059,55.935940966756000,-3.209416370252700,"Project Coffee","Project Coffee"
250760603,"Stadionring 24","Bochum, Germany",171619656186663,51.492673672848000,7.233770169805500,"Starlight Express - Das rasanteste Musical im Universum","Starlight Express - Das rasanteste Musical im Universum"
405771046517348,"Staroměstské nám. 480/24","",405771046517348,50.086700000000000,14.420950000000000,"Illusion Art Museum Prague","Illusion Art Museum Prague"
984345430,"","",361793180626570,33.601394999999997,-7.614470000000000,"Hafen Casablanca","Hafen Casablanca"
108226929205681,"","",108226929205681,51.516685063982997,-0.176848598087190,"Bahnhof Paddington","Bahnhof Paddington"
32074952,"","Stanmore",103721409666020,51.616700000000002,-0.316667000000000,"Stanmore","Stanmore"
192,"2020 Market St","San Francisco",218896678129850,37.769105251683001,-122.428266186689996,"Safeway","Safeway"
412524311,"Buckingham Palace Rd","",140308502662313,51.499974075931000,-0.142672576131470,"Queen's Gallery","Queen's Gallery"
1016143376,"1-9-7","東京都 千代田区",203364246441753,35.688459187543998,139.762212373770012,"日経ＣＮＢＣ（nikkei cnbc）","日経ＣＮＢＣ（nikkei cnbc）"
59822,"Währinger Straße 59","Wien, Austria",141595525890676,48.222955582752000,16.351446656514000,"WUK","WUK"
82311457,"Unter den Linden 5","Berlin, Germany",171418985430,52.516845005961002,13.390974836320000,"PalaisPopulaire","PalaisPopulaire"
747180024,"","Balham",973399466044944,51.160246541767002,-0.176996283206950,"North Terminal - Gatwick Airport","North Terminal - Gatwick Airport"
213447587,"","",109925612366788,33.849200000000003,-118.388499999999993,"Redondo Beach, California","Redondo Beach"
1012548846,"","",112749542072023,-37.818700000000000,144.897699999999986,"Yarraville, Victoria","Yarraville"
301588604,"100 Braid St","New Westminster, British Columbia",730550873652396,49.231290000000001,-122.885890000000003,"100 Braid St Studios","100 Braid St Studios"
2129915903755944,"15 Harwoods Road","",2129915903755944,51.650445800000000,-0.405138299999980,"West Watford Community Association","West Watford Community Association"
501937601,"","",162765327124569,53.899999999999999,-9.250000000000000,"County Mayo","County Mayo"
267221633,"","",109287145764448,31.337830000000000,-110.940070000000006,"Nogales, Arizona","Nogales"
249642385708395,"","",249642385708395,41.009864999999998,-80.697783999999999,"North Pole","North Pole"
568670518,"","",112359618779875,38.583333000000003,71.366667000000007,"Tajikistan","Tajikistan"
244517816,"","",103104389729625,51.917360000000002,-0.663900000000000,"Leighton Buzzard","Leighton Buzzard"
252214941,"","",107813875914739,57.337299999999999,-4.480000000000000,"Drumnadrochit","Drumnadrochit"
867859711,"Palliser Rd","",106206246076816,51.487499999999997,-0.211666666666670,"Queen's Club","Queen's Club"
284100602053108,"28 Westow Hill ","London, United Kingdom",284100602053108,51.419696920556000,-0.081753730773926,"Craft & Courage","Craft & Courage"
261153243,"","",114161668593907,42.698160000000001,-78.682209999999998,"West Falls, New York","West Falls"
299740223747528,"","",299740223747528,-26.063790000000001,148.525939999999991,"Cornwall","Cornwall"
212954660,"","Birmingham, United Kingdom",118436578220297,52.452628394230999,-1.733591644249600,"Birmingham Airport","Birmingham Airport"
204693456930987,"333 S Hope St","CA",204693456930987,34.053516100000003,-118.253256899999997,"Bank of America Plaza","Bank of America Plaza"
1494886370549770,"147 Leadenhall St","",1494886370549770,51.513595700000003,-0.083138400000000,"Grace Hall","Grace Hall"
226506940,"","",105822116125257,23.153600000000001,-81.251400000000004,"Varadero, Cuba","Varadero"
214560101,"","",108687135829971,45.649900000000002,13.772300000000000,"Trieste, Italy","Trieste"
118581674866047,"Lower Claremont Bank","Shrewsbury, England",118581674866047,52.709135337577003,-2.758553221304000,"Montgomery's Tower","Montgomery's Tower"
797052997145604,"","Bloemfontein, Free State",797052997145604,-27.060052560397999,26.016389429568999,"Another Level","Another Level"
255613876,"727-733 Lordship Lane","",440871969318083,51.597299282488997,-0.108131650604410,"The Gym 24/7,wood Green,London","The Gym 24/7"
698001633737775,"34 Cotham Hill","",698001633737775,51.464072100000003,-2.608002500000000,"Bellita","Bellita"
1025173823,"Durham Tees Valley Aiport","Darlington, Co Durham",932119566858891,54.514518700000004,-1.428540000000000,"Eden Flight Training","Eden Flight Training"
279760963,"Piazzale della Farnesina, 1","",226454947472655,41.936663619553997,12.457542968099000,"Ministero Degli Affari Esteri - ""La Farnesina""","Ministero Degli Affari Esteri - ""La Farnesina"""
1430295087074706,"Rue de Paris","Longueil-Sainte-Marie",1430295087074706,49.325009999999999,2.704980000000000,"Eurostar","Eurostar"
1116637,"Francis House, 3-7 Redwell Street","Norwich, Norfolk",182573188439034,52.632595309012998,1.292595333214300,"Norwich University of the Arts","Norwich University of the Arts"
513740025,"Stationsweg 8","Kruiningen",184517288255567,51.462760080004003,4.039848179986400,"Wiskerke Onions The Netherlands","Wiskerke Onions The Netherlands"
235668246,"17 Queensberry Place","London, United Kingdom",88685707030,51.494533756590002,-0.177053435049270,"Institut Français du Royaume-Uni","Institut Français du Royaume-Uni"
7541523,"16 Carlos Place","",141956985847802,51.510336244755997,-0.149535040039380,"Helene Darroze At The Connaught","Helene Darroze At The Connaught"
233130806,"19 Half Moon Lane","London, United Kingdom",124666014408902,51.453104900000000,-0.100265700000000,"The Illusioneer - theatre of magic and illusion","The Illusioneer - theatre of magic and illusion"
219955841,"25 Old Broad St","",110805118947794,51.515277777778003,-0.083888888888889,"Tower 42","Tower 42"
326245017547939," UNIT 16 ashley road ","",326245017547939,51.589822784409002,-0.062302350997925,"London One Radio","London One Radio"
1906000,"1-6 Chesham Place","London, United Kingdom",77962463252,51.497868006162001,-0.154596180360290,"German Embassy London","German Embassy London"
164635114214885,"Kingsley Rd","Hounslow, Middlesex",164635114214885,51.473375840045001,-0.356058570015280,"Hounslow East London Underground","Hounslow East London Underground"
228611652,"","",113411618674063,53.393195264634002,-2.068460904368300,"Marple, Stockport, United Kingdom","Marple"
215825705,"","",108117932542984,51.146630000000002,0.876040000000000,"Ashford, Kent","Ashford"
219946797,"ul. Agrykola 1","Warsaw, Poland",109385262427740,52.215159999999997,21.035799999999998,"Łazienki Królewskie","Łazienki Królewskie"
266863048,"New Cooperage, Royal William Yard","Plymouth",360089627433694,50.361875917546001,-4.163603782653800,"Bistrot Pierre - Plymouth","Bistrot Pierre - Plymouth"
452222285,"4-12 Regent Street Rex House Regus(4th Floor)","London, United Kingdom",159825227426583,51.508209200000003,-0.133254700000000,"Visa Express UK | Kanatu Group | Ankara Anlasmasi | Nedim Kanatu","Visa Express UK | Kanatu Group | Ankara Anlasmasi | Nedim Kanatu"
215394442,"Rathausmarkt 1","Hamburg, Germany",148487691854397,53.550528772394003,9.992940769770801,"Rathaus Hamburg","Rathaus Hamburg"
1017036016,"10 Peel Parade","Barnsley",885051204904328,53.552704901867003,-1.483547359733300,"Opium-No Ten","Opium-No Ten"
2008344616101904,"","",2008344616101904,50.708634400827997,-2.754135131835900,"The Jurassic Coast World Heritage Site","The Jurassic Coast World Heritage Site"
240840570,"","",106273306074652,48.683300000000003,10.150000000000000,"Heidenheim, Germany","Heidenheim"
214495883,"","",106411452727638,49.611699999999999,6.130000000000000,"Luxembourg, Luxembourg","Luxembourg"
360858687707617,"18-20 Station Rd","",360858687707617,51.457677819724999,-0.971992477728780,"Malmaison Reading","Malmaison Reading"
261691620,"Carrickarnon, Ravensdale","Ravensdale, Louth, Ireland",211823809006721,54.099943161288998,-6.360593410029700,"Carrickdale Hotel","Carrickdale Hotel"
247355569,"piazza Pio XI,2","Milan, Italy",326043050783203,45.463619999999999,9.186050000000000,"Pinacoteca Ambrosiana","Pinacoteca Ambrosiana"
154954401768251,"","",154954401768251,32.546813173514998,-105.468750000000000,"ILYSM","ILYSM"
216971015,"","",108913315803095,51.653280000000002,-0.087900000000000,"Enfield, Enfield, United Kingdom","Enfield"
559366893,"","",112864392066034,55.399993541054997,-2.655094044776300,"Bonchester Bridge, Scottish Borders, United Kingdom","Bonchester Bridge"
612137388,"3 Old Brewery Yard","Falmouth, United Kingdom",144485242243420,50.157004674737003,-5.072374807724500,"HAND Beer Bar UK","HAND Beer Bar UK"
224849694,"North York Moors National Park Authority, The Old Vicarage, Bondgate","Northallerton",123422217682590,54.247620400000002,-1.060024100000000,"North York Moors National Park","North York Moors National Park"
214192227,"","",108213255870638,51.552119444444003,-0.047038888888889,"Homerton","Homerton"
18194408,"13-15 Great Eastern Street","",153463441344463,51.522940900000002,-0.078301900000000,"We Admire","We Admire"
1020776070,"Beatrixpark","",1390523964541733,52.342778000000003,4.881944000000000,"Beatrixpark","Beatrixpark"
614728115,"1 Riverside Esplanade","Dundee, United Kingdom",148004088588385,56.458302461340999,-2.965835070083500,"V&A Dundee","V&A Dundee"
1020515195,"","",227121837424446,23.039100680813998,-81.436483108389993,"Cuba Varadero","Cuba Varadero"
594951993930615,"Membury Motorway Services Area Lambourn","Hungerford",594951993930615,51.483535583485001,-1.557324521530000,"Membury M4 Eastbound","Membury M4 Eastbound"
267363863972607,"булевард Княз Александър Дондуков 8, Sofia","",267363863972607,42.698059999999998,23.328830000000000,"Народно Събрание Дондуков","Народно Събрание Дондуков"
216629757,"","",107974722564458,50.885790000000000,5.980620000000000,"Heerlen","Heerlen"
1027579515,"ISME Tower, One Indiabulls Centre","Mumbai, India",841495629304219,19.006822055583999,72.833364183303999,"Indian School of Management & Entrepreneurship","Indian School of Management & Entrepreneurship"
6234504,"Walking Street, Moo 1, Maenam Beach","Amphoe Koh Sa-Mui, Surat Thani, Thailand",163653363692501,9.569621479977499,99.997058880747005,"Maenam Walking Street","Maenam Walking Street"
227768807,"","",105655066135840,51.445554820463002,-0.148882997619230,"Balham, London, England","Balham"
826897,"Route d'Italie","Montgenèvre, France",200200332270,44.931301575477001,6.724236420000000,"Montgenèvre","Montgenèvre"
1005351238,"259 Watling Street","Radlett, United Kingdom",190268631109201,51.684025653935997,-0.317406726508430,"Beauty Secrets Radlett","Beauty Secrets Radlett"
335487137212038,"Londres-Reino Unido","",335487137212038,51.156246000000003,-0.160953850000000,"Londres-Inglaterra","Londres-Inglaterra"
276648826469372,"920 Bradford Road, Park House","Batley",276648826469372,53.730574991871002,-1.664235591888400,"Batley Law Ltd","Batley Law Ltd"
1017415420,"Chapel Row, Borrowash","Derby",1456366891333976,52.906575502766003,-1.380469149565900,"Derby Kawasaki","Derby Kawasaki"
319154635354425,"107 Waterloo Road, ","",319154635354425,52.592401600000002,-2.131526800000000,"Leaping Wolf","Leaping Wolf"
216421221,"","",115477621800142,53.192100000000004,-2.891000000000000,"Chester, Cheshire","Chester"
364172,"151 Lefante Way","Bayonne, NJ",148033451884624,40.668492000000000,-74.104855000000001,"Houlihan's","Houlihan's"
2999289,"121 Eglinton Street","Glasgow, United Kingdom",34618900088,55.850550933557997,-4.259217314660900,"O2 Academy Glasgow","O2 Academy Glasgow"
38733,"224-238 Kensington High Street","London, United Kingdom",20753979168,51.499900490042997,-0.200135707855220,"Design Museum","Design Museum"
213480180,"","",110184922344060,38.895099999999999,-77.036699999999996,"Washington, District of Columbia","Washington"
213624484,"","",106116929418804,51.497812756651001,-0.176217103317490,"South Kensington","South Kensington"
49143886,"Putney","London, United Kingdom",59530657724,51.461178031811997,-0.216680288681450,"Putney","Putney"
241251639,"","",112889598729669,40.735669999999999,13.855499999999999,"Forio, Campania, Italy","Forio"
215091705,"","",107886532565618,51.411040000000000,-0.291420000000000,"Kingston upon Thames","Kingston upon Thames"
18313360,"Via Giovan Battista vico 21","",146236118772445,40.732496259801998,13.958891710449000,"Ischia Ponte","Ischia Ponte"
214992910,"","",107076609324102,55.046160000000000,9.420760000000000,"Aabenraa, Sonderjylland, Denmark","Aabenraa"
258684606,"86 Cannon St","",112446285433267,52.249589399999998,0.714773200000000,"The Old Cannon Brewery","The Old Cannon Brewery"
762954527408433,"Neville Road","",762954527408433,51.533029018820997,-0.199527394286350,"Neville Road Studios","Neville Road Studios"
255530079,"","",534553676602133,36.506780909707999,-4.893375663113100,"Marbella Puerto Banus","Marbella Puerto Banus"
230945168,"","London, United Kingdom",10513336322,51.534952150827003,-0.121737522336170,"The Guardian","The Guardian"
261052884,"","",108229999204412,43.317819999999998,6.469900000000000,"La Garde-Freinet","La Garde-Freinet"
922735141196597,"136 high holborn","",922735141196597,51.517429300000003,-0.122450100000000,"LABS","LABS"
215219092,"","",103754072996894,51.250000000000000,5.716670000000000,"Weert","Weert"
248081138,"","",114232501920274,47.336620300000000,3.870699900000000,"Saint-Martin-Du-Puy, Bourgogne, France","Saint-Martin-Du-Puy"
1788799,"89 Albany Road","Manchester, United Kingdom",328318204661,53.446576423669001,-2.277340500562300,"Unicorn Grocery","Unicorn Grocery"
45138795,"119 Kensington Church Street","London, England",114430408615053,51.506826099999998,-0.194781000000000,"Churchill Arms","Churchill Arms"
458497010,"The Ball, Crookes 171-173 Crookes","Sheffield, United Kingdom",292752190797714,53.384403483893998,-1.508429827418600,"The Ball, Crookes","The Ball"
213793108,"","",114469421897671,52.480600000000003,-1.898700000000000,"Birmingham, United Kingdom","Birmingham"
279671662842244,"Clock Tower","Layyah",279671662842244,25.350800000000000,55.371400000000001,"Deal or No Deal","Deal or No Deal"
1191441824276882,"1600 Pennsylvania Avenue","",1191441824276882,38.896844674147999,-77.036604881287005,"The White House","The White House"
237230643,"","Le Tréport",560205094046986,50.061769996263998,1.370457996780000,"Ville Le Tréport","Ville Le Tréport"
576109706101353,"92-94 Wallis Road","London, United Kingdom",576109706101353,51.544143221765999,-0.022455453872681,"Studio 9294","Studio 9294"
1029946040,"111 High Street","",168728740162018,50.872019799999997,0.004437000000000,"St Annes Galleries","St Annes Galleries"
1870703573010339,"","",1870703573010339,59.596672900000002,16.455418600000002,"House of the Long Shadows","House of the Long Shadows"
223224553,"Miller's Ave Unit 3","London, United Kingdom",165541130129320,51.552472088310999,-0.074380076353506,"Print Club","Print Club"
228042139,"","",109506945740044,50.833300000000001,-0.216667000000000,"Portslade, West Sussex, United Kingdom","Portslade"
262999118,"","",129405907126344,51.506035202564000,-0.088346543829599,"Ale & Pie","Ale & Pie"
242927259,"178 Low St","Newburyport, MA",474922169211814,42.815091840999997,-70.895730618000002,"Newburyport Tennis Club","Newburyport Tennis Club"
757550913,"2399 University Ave W","Saint Paul, Minnesota",524752054247517,44.964246163688003,-93.198046285792998,"Workhorse Coffee Bar","Workhorse Coffee Bar"
459967,"","",104049172966135,51.558300000000003,-1.781100000000000,"Swindon","Swindon"
246097549398253,"Universität Bayreuth","",246097549398253,49.928401999999998,11.587420000000000,"Fakultät Rechts- und Wirtschaftswissenschaften","Fakultät Rechts- und Wirtschaftswissenschaften"
603974,"Queensway","London, United Kingdom",321946062241,51.514754009401003,-0.188181530601590,"Whiteleys Centre","Whiteleys Centre"
2426450,"2401 12th St NW","Albuquerque, NM",65392431754,35.110539520583998,-106.658831556010000,"Indian Pueblo Cultural Center","Indian Pueblo Cultural Center"
603682702,"","",198903303531207,51.528049903109000,7.623626731997800,"Köln Cathedral","Köln Cathedral"
222604782,"","",106017922763477,54.524430000000002,-1.548920000000000,"Darlington, Co Durham","Darlington"
259666867,"","",105609612806020,54.368499999999997,-1.297200000000000,"Osmotherley, North Yorkshire","Osmotherley"
219232842,"","",103116746409436,53.450000000000003,-2.253000000000000,"Whalley Range, Manchester","Whalley Range"
223393247,"","",108044252561861,53.202800000000003,-6.098330000000000,"Bray, Ireland","Bray"
566473240474016,"","",566473240474016,51.500152999999997,-0.126236000000000,"Stansted Airport","Stansted Airport"
228820293,"4-6 Ballast Quay Unit 4","",308259875921743,51.482585514230003,-0.009755434016706,"Cutty Sark, Greenwich, London","Cutty Sark"
498673587,"Ijburg","",112606505432865,52.354999999999997,4.997780000000000,"IJburg","IJburg"
247068189474123,"Hamburger Allee 26-28","",247068189474123,50.115720000000003,8.647309999999999,"Immobilienkonzept Schneider","Immobilienkonzept Schneider"
277766102,"","",103760706329385,45.000000000000000,10.000000000000000,"Europe","Europe"
298971452,"","",109650272400166,41.149999999999999,1.416670000000000,"La Marina, Cataluna, Spain","La Marina"
7856081,"","",112856965391885,51.509599999999999,-0.204300000000000,"Notting Hill","Notting Hill"
256802711857389,"London Bridge Railway Station","",256802711857389,51.505146000000003,-0.084779000000000,"Hamleys","Hamleys"
573541482,"","",109203759099913,41.808900000000001,67.994399999999999,"Kazakhstan, Ongtüstik Qazaqstan, Kazakhstan","Kazakhstan"
228364153,"","",108460315845725,51.569000000000003,0.010000000000000,"Leytonstone","Leytonstone"
374024196,"Ehrenfeldgürtel 88-94","Köln, Germany",276590402373787,50.950940000000003,6.918010000000000,"BALLONI","BALLONI"
637008,"","",107963209232548,51.953620000000001,-0.284690000000000,"Hitchin","Hitchin"
214787067,"","",109571329060695,49.136400000000002,-122.820999999999998,"Surrey, British Columbia","Surrey"
1032989999,"55 North Street","Portslade, West Sussex, United Kingdom",182531555440014,50.830620852955000,-0.210780758421150,"The Circle Studios","The Circle Studios"
747255937,"","",533224866816896,51.585162863332997,-0.019440013333333,"Hoe Street, London","Hoe Street"
1022967121,"Odenkirchener Straße 78","Mönchengladbach, Nordrhein-Westfalen",154051661296332,51.162160000000000,6.443490000000000,"Theater Mönchengladbach","Theater Mönchengladbach"
673333,"","",105691122798030,28.466699999999999,-16.250000000000000,"Santa Cruz de Tenerife","Santa Cruz de Tenerife"
245735841,"","",115249421819972,55.412540000000000,-1.703540000000000,"Alnwick, Northumberland","Alnwick"
1368722499880952,"","Colleville-sur-Mer, Normandie",1368722499880952,49.357699257177998,-0.852220834555940,"Cimetiere Americain Omaha Beach","Cimetiere Americain Omaha Beach"
1032880643,"","",222158441188590,54.776527317006000,-1.574585658520000,"Durham (city)","Durham (city)"
2886131,"","",108219892532506,50.783333333332998,4.316666666666700,"Drogenbos","Drogenbos"
479309958,"","",107845575903721,50.338000000000001,-4.795000000000000,"St Austell","St Austell"
442328018,"","",113153018699569,51.452900000000000,-0.034500000000000,"Brockley","Brockley"
707131502991191,"","",707131502991191,52.377994999999998,4.891566666666700,"Langestraat, Amsterdam","Langestraat"
213012399,"Corballis Road South","Dublin, Ireland",157498590963178,53.427134184373003,-6.243770193587800,"Dublin Airport","Dublin Airport"
635611455,"98 Barlow Moor Road","Manchester, United Kingdom",246307268824016,53.421278000000001,-2.242563100000000,"The Flower Lounge","The Flower Lounge"
717517505,"1C Dock Place","",152565608154867,55.977123100000000,-3.171476900000000,"Teuchters Landing Leith","Teuchters Landing Leith"
730123664,"","Jamaica, NY",1471174133172534,40.647273957993001,-73.790521145537994,"Terminal 8 - John F. Kennedy International Airport","Terminal 8 - John F. Kennedy International Airport"
139547386710133,"","London",139547386710133,51.500152399999998,-0.126236200000000,"Canary Wharf","Canary Wharf"
1714910088746434,"Avenida Gran Canaria, 20","Gran Canaria, Las Palmas",1714910088746434,27.763367716906000,-15.571344800877000,"Hotel Servatur Waikiki","Hotel Servatur Waikiki"
393184861041253,"Benner Rd","Washington Twp, NJ",393184861041253,39.748950000000001,-75.073380000000000,"Omaha Beach- Normandy, France","Omaha Beach- Normandy"
223345167,"","",137447946276397,54.599799865076001,-5.956419347813800,"Falls Road, Belfast","Falls Road"
254961673,"MediaCityUK","Manchester, United Kingdom",202515253119258,53.472370270742999,-2.298981455272700,"BBC Media City Manchester","BBC Media City Manchester"
372145632831319,"11th Floor, Seoul Square, 416 Hangang-daero, Jung-gu","Seoul, South Korea",372145632831319,37.555703219883000,126.973285675049993,"Delegation of the European Union to the Republic of Korea","Delegation of the European Union to the Republic of Korea"
237493551,"","",139775279375386,31.143999999999998,121.656999999999996,"Shanghai Disneyland Park","Shanghai Disneyland Park"
2125602891051271,"","Sw1, London",2125602891051271,51.490729999999999,-0.144720000000000,"Abbey Road","Abbey Road"
567920128,"","Shreveport, LA",134064529960096,32.459958999999998,-93.712226999999999,"CrazyStupidShit","CrazyStupidShit"
212901927,"","",108426499181164,50.906944000000003,-1.404722000000000,"Southampton","Southampton"
281369685,"Rue Wiertz 60, 1047 Bruxelles, Belgien","",166115846747753,40.681207399999998,-73.960320499999995,"European Union","European Union"
254728701801189,"BH2 Leisure Complex","",254728701801189,50.718150000000001,-1.888980000000000,"Mr Mulligans, Bournemouth","Mr Mulligans"
790750200,"","",673576599454781,53.902245999999998,27.561837000000001,"Minsk","Minsk"
238215160172489,"617-619 London Road","",238215160172489,53.360048200000001,-1.473687700000000,"Pour Sheffield","Pour Sheffield"
233037,"Devonshire Green House, Fitzwilliam St","",305467532921129,53.379058498394002,-1.478268013711400,"Devonshire Green","Devonshire Green"
230218904,"","",108525519172294,50.636780000000002,-4.363340000000000,"Launceston, Cornwall","Launceston"
1261675100614912,"","City of Bristol",1261675100614912,51.449514054443000,-2.580381609488800,"Bristol Temple Meads Railway Station","Bristol Temple Meads Railway Station"
213190005,"","",109712635722666,53.384000000000000,-1.508000000000000,"Crookes","Crookes"
175613516688135,"Lockwood House","",175613516688135,51.483676991205002,-0.111777922615400,"Lockwood House: Mansion 3.0","Lockwood House: Mansion 3.0"
253956351649816,"","Portsmouth, Hampshire",253956351649816,50.779797000000002,-1.069965000000000,"Southsea Esplanade","Southsea Esplanade"
377781395,"Canterbury Cathedral, Cathedral House, 11 The Precincts","Canterbury, Kent",940726239287772,51.279158359024002,1.081521258637900,"Canterbury Cathedral","Canterbury Cathedral"
215813584,"","",106070812766404,51.016700000000000,-1.316670000000000,"Winchester, Hampshire","Winchester"
228574012,"The Trentham Estate, Stone Rd","Stoke-on-Trent",138247166268676,52.962692235462001,-2.197607542759800,"Trentham Shopping Village","Trentham Shopping Village"
303720955,"205 Wellington St. W.","Toronto, ON",286023281502233,43.644792023649998,-79.387916088758999,"CBC Toronto","CBC Toronto"
230301818,"","",103753882996626,50.914289838687999,0.970338225483480,"Dungeness","Dungeness"
1460320074246791,"","",1460320074246791,55.953055555600002,-3.188888888890000,"North of Great Britain","North of Great Britain"
213103343,"","London, United Kingdom",135602823147553,51.471052767857003,-0.458774923317080,"Heathrow Airport","Heathrow Airport"
936019846580767,"1  Bridge Street","SW1, London",936019846580767,51.501064800000002,-0.124423800000000,"Westminster Bridge","Westminster Bridge"
124176901600128,"Dray Walk, 91 Brick Lane, London E1 6QL","",124176901600128,51.521070934911997,-0.072280168533325,"Rough Trade East","Rough Trade East"
840692,"Cromwell Road","London, United Kingdom",198081311536,51.496245367131003,-0.175827904361650,"Natural History Museum, London","Natural History Museum"
504839219,"","",105588686142730,51.483800000000002,-0.604830000000000,"Windsor Castle","Windsor Castle"
213636552,"The Close","Salisbury, Wiltshire",295140376781,51.066158414905999,-1.797223519157000,"Salisbury Cathedral","Salisbury Cathedral"
624024844463890,"8 Bacon Street","",624024844463890,51.523899100000001,-0.072311600000000,"Pure Gym Shoreditch","Pure Gym Shoreditch"
13404453,"","",110585945628334,13.752200000000000,100.494000000000000,"Bangkok, Thailand","Bangkok"
170547593869387,"Straße des 17. Juni","",170547593869387,52.516325326072000,13.375961780548000,"Ronald Reagan Memorial","Ronald Reagan Memorial"
214335750,"","",104299169609925,54.644529030915997,-8.115887222810400,"Donegal, Donegal, Ireland","Donegal"
174806236587426,"Regents Pk","London",174806236587426,51.534087599999999,-0.178154800000000,"Regents Park","Regents Park"
218896610,"","",103139789725544,-19.782000000000000,-43.924999999999997,"Santa Luzia, Minas Gerais","Santa Luzia"
1021766843,"","Tesero",317843418249288,46.333639876013002,11.547582541853000,"Rifugio Monte Agnello","Rifugio Monte Agnello"
113255942680172,"Holteistraße.13","Berlin",113255942680172,52.508270000000003,13.466230000000000,"Avocado Club Berlin","Avocado Club Berlin"
285695316,"","",129124150462824,52.558977788999996,-0.302849923000000,"Ferry Meadows railway station","Ferry Meadows railway station"
1015141229,"","",820306751423541,51.521599999999999,-0.182100000000000,"Little Venice, London","Little Venice"
262893875,"Martin-Luther-Str. 17","Dresden-Neustadt, Sachsen, Germany",252716518087122,51.064140000000002,13.755599999999999,"Lloyd's Café & Bar","Lloyd's Café & Bar"
563535857155003,"1 London Bridge Street","London, Greater London",563535857155003,51.507860000000001,-0.067180000000000,"News UK","News UK"
220485828,"","",110390172322905,50.265270000000001,-5.053600000000000,"Truro, Cornwall","Truro"
390363603,"","",111259955561228,51.000000000000000,1.450000000000000,"Strait of Dover","Strait of Dover"
218570419,"","",113164268700005,51.486352628581997,0.001840196919392,"Greenwich, Newham, United Kingdom","Greenwich"
260558268,"","",131240503573634,9.498100000000001,76.338800000000006,"Alleppey (Alappuzha), India","Alleppey (Alappuzha)"
110301772946201,"","",110301772946201,50.644883333332999,4.225675000000000,"Artone Design Office","Artone Design Office"
114891543,"19  Avenida Juan Carlos I","",144149569040959,28.048083394254000,-16.710523192111001,"Jades Bar","Jades Bar"
293869117,"418 Bradford Road","Batley",167414909972170,53.712569606373997,-1.625946775577100,"The Mill Outlet, Batley","The Mill Outlet"
215140461,"","Manchester, United Kingdom",126059427429060,53.361810461249000,-2.274348414100600,"Manchester Airport","Manchester Airport"
8192,"The Promenade","",164124536940623,53.815659956521998,-3.054770569106400,"The Blackpool Tower","The Blackpool Tower"
1027463244,"","",164712360209425,51.458700000000000,-0.211300000000000,"East Putney","East Putney"
160321,"16 Narrow Quay","",21631134648,51.449240185813998,-2.597566935346700,"Arnolfini","Arnolfini"
711283499238605,"","Dove Holes, Derbyshire",711283499238605,53.321399999999997,-1.896420000000000,"Peak District National Park","Peak District National Park"
243980472701624,"Bankowa 5","",243980472701624,50.258822315293003,19.028255939484001,"Akademia Dyplomacji","Akademia Dyplomacji"
379955877,"","",595235770555845,51.526000000000003,-0.078000000000000,"Shoreditch","Shoreditch"
214775469445780,"123 fst","",214775469445780,50.720390000000002,-1.880930000000000,"Insanity","Insanity"
231623,"","",104004839634909,51.479503574783003,-0.156661477536650,"Battersea Park","Battersea Park"
130684996,"","Leeds, United Kingdom",345404387254,53.869172405744997,-1.387892906755700,"Leeds Festival","Leeds Festival"
224043086,"","",104129169624937,37.978700000000004,-0.684000000000000,"Torrevieja","Torrevieja"
9932395,"","",103096383063508,57.000000000000000,-5.000000000000000,"Scotland","Scotland"
417593394985420,"Cawdor","",417593394985420,57.526803775620003,-3.927075862884500,"Cawdor Castle","Cawdor Castle"
244410259,"28 Commercial Street","London, United Kingdom",100315030038500,51.516505864545003,-0.072330251434832,"Toynbee Studios (Artsadmin)","Toynbee Studios (Artsadmin)"
5114,"Hammersmith Bridge Rd","",109688072390349,51.488900000000001,-0.229735000000000,"Hammersmith Bridge","Hammersmith Bridge"
236378059,"Annascaul Village","",109596172391530,52.193333333333001,-10.083888888889000,"Dingle Peninsula","Dingle Peninsula"
4909700,"","",111951888822149,51.597650000000002,-3.331170000000000,"Pontypridd","Pontypridd"
233710007,"","",113733928641566,53.033299999999997,-1.083330000000000,"Calverton, Nottingham, United Kingdom","Calverton"